{"version": 0.6, "generator": "Overpass API 0.7.57 93a4d346", "osm3s": {"timestamp_osm_base": "2022-02-08T19:36:25Z", "timestamp_areas_base": "2022-02-08T16:25:54Z", "copyright": "The data included in this document is from www.openstreetmap.org. The data is made available under ODbL."}, "elements": [{"type": "node", "id": 269370709, "lat": 41.0844336, "lon": 29.0564773, "tags": {"name": "Rumeli Hisar\u0131", "name:ru": "\u041a\u0440\u0435\u043f\u043e\u0441\u0442\u044c \u0420\u0443\u043c\u0435\u043b\u0438\u0445\u0438\u0441\u0430\u0440", "tourism": "attraction", "website": "https://muze.gen.tr/"}}, {"type": "node", "id": 269479694, "lat": 41.0415794, "lon": 29.0063574, "tags": {"artwork_type": "statue", "name": "Barbaros Hayrettin Heykeli", "name:en": "Sculpture of Barbarossa", "tourism": "artwork"}}, {"type": "node", "id": 269709058, "lat": 41.042587, "lon": 29.0038953, "tags": {"name": "Kanburun Bah\u00e7esi", "tourism": "attraction"}}, {"type": "node", "id": 288789398, "lat": 41.1206984, "lon": 29.070102, "tags": {"name": "Sait Halim Pa\u015fa Yal\u0131s\u0131", "tourism": "attraction"}}, {"type": "node", "id": 288789401, "lat": 41.1189172, "lon": 29.0684191, "tags": {"name": "Erbilgin Yal\u0131s\u0131", "tourism": "attraction"}}, {"type": "node", "id": 288789412, "lat": 41.1188112, "lon": 29.0641646, "tags": {"name": "Besteci Faik Canselen'in Evi", "tourism": "attraction"}}, {"type": "node", "id": 415156590, "lat": 41.0053979, "lon": 28.9748184, "tags": {"historic": "monument", "man_made": "obelisk", "name": "\u00d6rme Dikilita\u015f", "name:ar": "\u0623\u0648\u0645\u0631\u064a \u062f\u064a\u0643\u064a\u0644\u064a\u062a\u0627\u0634\u0650", "name:de": "Obelisk", "name:en": "The Walled Obelisk", "name:es": "Obelisco de Constantino", "name:fr": "Ob\u00e9lisque \u00ab mur\u00e9 \u00bb", "name:hi": "\u0913\u092c\u093f\u0932\u093f\u0938\u094d\u0915 \u0915\u0940 \u0926\u0940\u0935\u093e\u0930", "name:ru": "\u041e\u0431\u0435\u043b\u0438\u0441\u043a \u041a\u043e\u043d\u0441\u0442\u0430\u043d\u0442\u0438\u043d\u0430", "name:tr": "\u00d6rme Dikilita\u015f", "wikidata": "Q742474", "wikipedia": "tr:\u00d6rme Dikilita\u015f"}}, {"type": "node", "id": 415157636, "lat": 41.0056628, "lon": 28.975103, "tags": {"historic": "monument", "name": "Y\u0131lanl\u0131 S\u00fctun", "name:ar": "\u064a\u0644\u0627\u0646\u0644\u0650 \u0633\u0648\u062a\u0648\u0646", "name:de": "Schlangens\u00e4ule", "name:en": "Serpent Column", "name:es": "Columna de las Serpientes", "name:fr": "Colonne serpentine", "name:hi": "\u0938\u0930\u094d\u092a \u0938\u094d\u0924\u0902\u092d", "name:ru": "\u0417\u043c\u0435\u0438\u043d\u0430\u044f \u043a\u043e\u043b\u043e\u043d\u043d\u0430", "name:tr": "Y\u0131lanl\u0131 S\u00fctun", "name:zh": "\u87ba\u65cb\u5706\u67f1", "wikidata": "Q588892", "wikipedia": "tr:Y\u0131lanl\u0131 S\u00fctun"}}, {"type": "node", "id": 415157637, "lat": 41.0059073, "lon": 28.9753797, "tags": {"height": "15.9", "historic": "monument", "man_made": "obelisk", "name": "Theodosius Dikilita\u015f\u0131", "name:ar": "\u062b\u064a\u0648\u062f\u0648\u0633\u064a\u0627\u064a \u062f\u064a\u0643\u064a\u0644\u064a\u062a\u0627\u0634\u0650", "name:de": "\u00c4gyptischer Obelisk", "name:en": "Obelisk of Theodosius", "name:es": "Obelisco de Teodosio", "name:fr": "Ob\u00e9lisque de Th\u00e9odose", "name:hi": "\u0925\u093f\u092f\u094b\u0921\u094b\u0938\u093f\u092f\u0938 \u0915\u093e \u0913\u092c\u093f\u0932\u093f\u0938\u094d\u0915", "name:it": "Obelisco di Teodosio", "name:ru": "\u0415\u0433\u0438\u043f\u0435\u0442\u0441\u043a\u0438\u0439 \u043e\u0431\u0435\u043b\u0438\u0441\u043a", "name:tr": "Theodosius Dikilita\u015f\u0131", "name:zh": "\u72c4\u5965\u591a\u897f\u65b9\u5c16\u7891", "note:start_date": "The obelisk was erected in 390 here. The obelisk itself is much older", "start_date": "390", "wikidata": "Q763854", "wikipedia": "tr:Dikilita\u015f (Sultanahmet)"}}, {"type": "node", "id": 554083364, "lat": 41.1060207, "lon": 29.0555191, "tags": {"charge": "20 TRY", "fee": "yes", "name": "Sabanc\u0131 \u00dcniversitesi Sak\u0131p Sabanc\u0131 M\u00fczesi", "name:en": "Sak\u0131p Sabanc\u0131 Museum", "name:tr": "Sabanc\u0131 \u00dcniversitesi Sak\u0131p Sabanc\u0131 M\u00fczesi", "note": "Sak\u0131p Sabanc\u0131 Museum Collection of the Arts of the Book and Calligraphy have illuminated Korans, calligraphy, official documents from the Ottoman sultans, etc. Exhibits are from the end of the 14th century to the 20th century.", "opening_hours": "Tu, Th, Fr, Su 10:00-18:00;We, Sa 10:00-22:00", "phone": "+90 212 277 22 00", "toilets:wheelchair": "yes", "tourism": "museum", "website": "https://www.sakipsabancimuzesi.org/en/", "wheelchair": "yes", "wikidata": "Q3395851", "wikipedia": "en:Sak\u0131p Sabanc\u0131 Museum"}}, {"type": "node", "id": 581990954, "lat": 41.0491901, "lon": 29.0263591, "tags": {"name": "Ortak\u00f6y Sanat Galerisi", "tourism": "gallery", "wheelchair": "yes"}}, {"type": "node", "id": 654205150, "lat": 41.0318623, "lon": 28.9751457, "tags": {"addr:city": "Tepeba\u015f\u0131- Beyo\u011flu - Istanbul", "addr:full": "Me\u015frutiyet Caddesi No.65Taksim Istanbul", "addr:housenumber": "141", "addr:postcode": "34443", "addr:street": "Me\u015frutiyet Caddesi", "name": "Pera M\u00fczesi", "name:ar": "\u0645\u062a\u062d\u0641 \u0628\u064a\u0631\u0627", "name:en": "Pera Museum", "name:ru": "\u041c\u0443\u0437\u0435\u0439 \u043f\u0435\u0440\u0430", "name:tr": "Pera M\u00fczesi", "note": "https://www.geziyerler.com/pera-muzesi", "opening_hours": "Tu-Su 10:00-19:00, Su 12:00-18:00", "phone": "212 334 9900", "tourism": "museum", "website": "https://www.peramuzesi.org.tr/", "wheelchair": "no", "wheelchair:description": "Tekerlekli sandalye i\u00e7in %100 uygundur. Engelli tuvaleti vard\u0131r."}}, {"type": "node", "id": 663391267, "lat": 41.0085416, "lon": 28.9716244, "tags": {"addr:housenumber": "8", "addr:postcode": "34440", "addr:street": "Vezirhan\u0131 Caddesi", "alt_name": "sauna; yunak", "amenity": "public_bath", "bath:type": "hammam", "leisure": "turkish_bath", "name": "\u00c7emberlita\u015f Hamam\u0131", "name:ar": "\u062a\u0634\u064a\u0645\u0628\u0631\u0644\u064a\u062a\u0627\u0634 \u062d\u0645\u0627\u0645\u064a", "name:en": "\u00c7emberlita\u015f Hammam", "name:it": "\u00c7emberlita\u015f Hammam", "name:ru": "\u0425\u0430\u043c\u0430\u043c \u0427\u0435\u043c\u0431\u0435\u0440\u043b\u0438\u0442\u0430\u0448", "name:uk": "\u0425\u0430\u043c\u0430\u043c \u0427\u0435\u043c\u0431\u0435\u0440\u043b\u0438\u0442\u0430\u0448", "name:zh": "2-1-1\u541b\u58eb\u5766\u4e01\u7eaa\u5ff5\u67f1", "opening_hours": "Mo-Su 06:00-23:30", "source": "Maxar Premium-Luftbilder (Beta)", "tourism": "attraction"}}, {"type": "node", "id": 796545922, "lat": 40.9848918, "lon": 28.8446018, "tags": {"name": "\u0130spirtohane", "tourism": "museum"}}, {"type": "node", "id": 1026149721, "lat": 41.0005858, "lon": 28.8514348, "tags": {"amenity": "castel", "name": "Siyavu\u015fpa\u015fa Kasr\u0131", "name:ar": "\u0642\u0644\u0639\u0629 \u0633\u064a\u0647\u0627\u0641\u0648\u0634 \u0628\u0627\u0634\u0627", "ref": "castel", "tourism": "museum"}}, {"type": "node", "id": 1037084486, "lat": 40.9641579, "lon": 28.8262655, "tags": {"addr:city": "\u0130stanbul", "addr:district": "Bak\u0131rk\u00f6y", "addr:street": "Eski Havaalan\u0131 Caddesi", "email": "havacilikmuzesi@hho.edu.tr", "name": "Havac\u0131l\u0131k M\u00fczesi", "name:en": "Turkish Air Force Museum", "name:ru": "\u041c\u0443\u0437\u0435\u0439 \u0430\u0432\u0438\u0430\u0446\u0438\u0438 \u0432 \u0421\u0442\u0430\u043c\u0431\u0443\u043b\u0435", "opening_hours": "Tu-Fr 09:00-16:30; Sa-Su 10:00-17:30", "phone": "+90 212 663 24 90", "tourism": "museum", "website": "http://www.hho.edu.tr/muze/muze.htm", "wikidata": "Q3394116"}}, {"type": "node", "id": 1346157990, "lat": 41.0488755, "lon": 28.9882427, "tags": {"name": "Askeri M\u00fcze", "name:en": "Military Museum", "name:ru": "\u0412\u043e\u0435\u043d\u043d\u044b\u0439 \u043c\u0443\u0437\u0435\u0439 \u0432 \u0421\u0442\u0430\u043c\u0431\u0443\u043b\u0435", "name:tr": "Askeri M\u00fcze", "opening_hours": "We-Su 9:00-17:00", "phone": "+90 212 233 27 20", "tourism": "museum", "website": "http://www.askerimuze.tsk.tr/INGILIZCE/military_museum.htm", "wikidata": "Q12808583"}}, {"type": "node", "id": 1352425761, "lat": 41.059005, "lon": 28.9490675, "tags": {"addr:city": "S\u00fctl\u00fcce \\ Istanbul", "addr:postcode": "34445", "addr:street": "\u0130mrahor Caddesi", "email": "info@miniaturk.com.tr", "name": "Miniat\u00fcrk A\u00e7\u0131khava M\u00fczesi", "name:en": "Miniature Park", "name:ru": "\u041c\u0438\u043d\u0438\u0430\u0442\u044e\u0440\u043a \u043f\u0430\u0440\u043a \u043c\u0438\u043d\u0438\u0430\u0442\u044e\u0440 \u0422\u0443\u0440\u0446\u0438\u0438", "name:tr": "Miniat\u00fcrk M\u00fczesi", "name:uk": "\u041f\u0430\u0440\u043a \u043c\u0456\u043d\u0456\u0430\u0442\u044e\u0440", "opening_hours": "Mo-Su 09:00-19:00", "phone": "+90 0212 222 28 82", "tourism": "museum", "website": "https://www.miniaturk.com.tr/", "wheelchair": "yes", "wheelchair:description": "Ana giri\u015fte 16 derecelik bir adet rampa vard\u0131r. Engelli tuvaleti bulunmaktad\u0131r.", "wikidata": "Q1085952"}}, {"type": "node", "id": 1426032250, "lat": 41.0435591, "lon": 29.0042148, "tags": {"historic": "monument", "name": "BJK 100 Y\u0131l Kartal Heykeli"}}, {"type": "node", "id": 1591335375, "lat": 41.0071385, "lon": 28.9439459, "tags": {"historic": "monument", "name": "Bulgur Palas", "name:ar": "\u0628\u0648\u0644\u0643\u0648\u0631 \u0628\u0627\u0644\u0627\u0633"}}, {"type": "node", "id": 1620494633, "lat": 41.0162025, "lon": 28.9719047, "tags": {"historic": "monument", "name": "Hatice Turhan Sultan T\u00fcrbesi", "name:ar": "\u0628\u062f\u0627\u064a\u0629 \u0627\u0644\u0633\u0648\u0642 \u0627\u0644\u0645\u0633\u0642\u0648\u0641", "name:en": "Tomb of Hatice Turhan Sultan"}}, {"type": "node", "id": 1651509840, "lat": 41.0263935, "lon": 28.9748704, "tags": {"name": "Galata Foto\u011fraf Akademisi", "tourism": "artwork"}}, {"type": "node", "id": 1768294290, "lat": 41.0042694, "lon": 28.977449, "tags": {"name": "B\u00fcy\u00fck Saray Mozaikleri M\u00fczesi", "name:ar": "\u0645\u062a\u062d\u0641 \u0628\u064a\u0648\u0643 \u0633\u0627\u0631\u0627\u064a \u0645\u064a\u0648\u0632\u0627\u064a\u064a\u0643", "name:de": "Gro\u00dfer Palast (Mosaikenmuseum)", "name:en": "Great Palace Mosaic Museum", "name:fr": "Mus\u00e9e de la mosa\u00efque du grand palais", "name:ru": "\u041c\u0443\u0437\u0435\u0439 \u043c\u043e\u0437\u0430\u0438\u043a", "name:zh": "\u5927\u7687\u5bab\u9576\u5d4c\u753b\u535a\u7269\u9986", "opening_hours": "Mo-Su 09:00-16:30", "tourism": "museum", "website": "https://muze.gen.tr/", "wikidata": "Q2719230", "wikipedia": "tr:B\u00fcy\u00fck Saray Mozaikleri M\u00fczesi"}}, {"type": "node", "id": 1770612643, "lat": 41.0238356, "lon": 28.9736169, "tags": {"addr:city": "\u0130stanbul", "addr:district": "Karak\u00f6y", "addr:housenumber": "11", "addr:postcode": "34420", "addr:street": "Bankalar Caddesi", "name": "Osmanl\u0131 Bankas\u0131 M\u00fczesi", "name:en": "Ottoman Bank Museum", "phone": "+90 212 334 22 00", "tourism": "museum", "website": "http://www.obmuze.com/"}}, {"type": "node", "id": 1807703751, "lat": 41.0046397, "lon": 28.967754, "tags": {"name": "Istanbul Photography Museum", "name:ar": "\u0645\u062a\u062d\u0641 \u0627\u0633\u0637\u0646\u0628\u0648\u0644 \u0641\u0648\u062a\u0648\u063a\u0631\u0627\u0641\u064a", "name:tr": "\u0130stanbul Foto\u011fraf M\u00fczesi", "opening_hours": "Tu-Su 10:00-18:00", "tourism": "museum"}}, {"type": "node", "id": 1908677124, "lat": 41.008066, "lon": 28.9779826, "tags": {"historic": "monument", "name": "Milyon Ta\u015f\u0131", "name:ar": "\u0645\u0644\u064a\u0648\u0646 \u062a\u0627\u0634\u064a - \u0645\u0644\u064a\u0648\u0646 \u062d\u062c\u0631", "name:de": "Milion", "name:en": "Milion", "name:ru": "\u041c\u0438\u043b\u0438\u0430\u0440\u0438\u0443\u043c \u0431\u0430\u0437\u0438\u043b\u0438\u043a\u0430", "name:tr": "Milyon Ta\u015f\u0131", "wikidata": "Q1187329", "wikipedia": "en:Milion", "wikipedia:ru": "\u041c\u0438\u043b\u0438\u0439"}}, {"type": "node", "id": 1970273239, "lat": 41.0861338, "lon": 29.0446399, "tags": {"name": "Portal by Ilhan Koman", "tourism": "artwork"}}, {"type": "node", "id": 1970273246, "lat": 41.0856956, "lon": 29.0443857, "tags": {"name": "Atat\u00fcrk Heykeli", "tourism": "artwork"}}, {"type": "node", "id": 2201659666, "lat": 41.1629996, "lon": 29.0481987, "tags": {"fee": "yes", "name": "Sadberk Han\u0131m M\u00fczesi", "name:en": "Sadberk Han\u0131m Museum", "name:tr": "Sadberk Han\u0131m M\u00fczesi", "opening_hours": "Th-Tu 10:00-17:00", "operator": "Vehbi Ko\u00e7 Vakf\u0131", "phone": "+90 212 242 38 13", "price": "7TL", "tourism": "museum", "website": "http://www.sadberkhanimmuzesi.org.tr/", "wikidata": "Q3300324"}}, {"type": "node", "id": 2282062752, "lat": 41.0219982, "lon": 28.5757305, "tags": {"historic": "monument", "name": "B\u00fcy\u00fck\u00e7ekmece Kervansaray (Kur\u015funlu Han)"}}, {"type": "node", "id": 2282062787, "lat": 41.0223139, "lon": 28.5741537, "tags": {"historic": "monument", "name": "B\u00fcy\u00fck\u00e7ekmece Kanuni Sultan S\u00fcleyman K\u00f6pr\u00fcs\u00fc"}}, {"type": "node", "id": 2451239991, "lat": 40.9759566, "lon": 29.0706193, "tags": {"name": "\u0130stanbul Oyuncak M\u00fczesi", "tourism": "museum", "url": "http://www.istanbuloyuncakmuzesi.com/", "wikidata": "Q2743371"}}, {"type": "node", "id": 2472730735, "lat": 41.0074523, "lon": 28.9739702, "tags": {"name": "Binbirdirek Sarn\u0131c\u0131", "name:ar": "\u0645\u062a\u062d\u0641 \u0628\u0646\u0628\u064a\u0631\u062f\u064a\u0631\u064a\u0643 \u0633\u0627\u0631\u0646\u064a\u062c\u064a", "name:de": "Zisterne des Philoxenos", "name:el": "\u039a\u03b9\u03bd\u03c3\u03c4\u03ad\u03c1\u03bd\u03b1 \u03a6\u03b9\u03bb\u03bf\u03be\u03ad\u03bd\u03bf\u03c5", "name:en": "Cistern of Philoxenos", "name:it": "Cisterna di Filosseno", "name:ru": "\u0426\u0438\u0441\u0442\u0435\u0440\u043d\u0430 \u0424\u0438\u043b\u043e\u043a\u0441\u0435\u043d\u0430", "tourism": "museum", "wikidata": "Q2728644", "wikipedia": "en:Cistern of Philoxenos"}}, {"type": "node", "id": 2514747643, "lat": 41.0455872, "lon": 28.8961328, "tags": {"name": "Turkuazoo Akvaryum", "tourism": "aquarium", "website": "www.turkuazoo.com"}}, {"type": "node", "id": 2575834483, "lat": 41.1261093, "lon": 28.7018667, "tags": {"historic": "monument", "name": "Filiboz Antik Bizans kasabas\u0131"}}, {"type": "node", "id": 2688289706, "lat": 41.037051, "lon": 28.9750884, "tags": {"designation": "Recording Studio", "name": "Hayyam St\u00fcdyolar\u0131", "tourism": "artwork"}}, {"type": "node", "id": 2706544572, "lat": 41.0081267, "lon": 28.9778968, "tags": {"historic": "monument", "name": "Yerebatan Sarn\u0131c\u0131", "name:ar": "\u0633\u0648 \u062a\u064a\u0631\u0627\u0632\u064a\u0633\u064a", "name:en": "Yerebatan Cistern", "name:es": "Bas\u00edlica cisterna", "name:ru": "\u0426\u0438\u0441\u0442\u0435\u0440\u043d\u0430 \u0411\u0430\u0437\u0438\u043b\u0438\u043a\u0430", "name:uk": "\u0426\u0438\u0441\u0442\u0435\u0440\u043d\u0430 \u0411\u0430\u0437\u0438\u043b\u0438\u043a\u0430", "name:zh": "\u5730\u4e0b\u6c34\u5bae\u6bbf", "website": "https://www.geziyerler.com/yerebatan-sarnici"}}, {"type": "node", "id": 2832656982, "lat": 41.2464998, "lon": 29.0369322, "tags": {"historic": "monument", "name": "Atat\u00fcrk An\u0131t\u0131"}}, {"type": "node", "id": 2852238747, "lat": 40.9597384, "lon": 29.1908809, "tags": {"historic": "monument", "name": "Atat\u00fcrk Heykeli"}}, {"type": "node", "id": 2852239163, "lat": 40.959791, "lon": 29.1918835, "tags": {"historic": "monument", "name": "Seyit Onba\u015f\u0131 Heykeli"}}, {"type": "node", "id": 3135406162, "lat": 41.0563817, "lon": 28.9872594, "tags": {"addr:housenumber": "250", "addr:street": "Halaskargazi Caddesi", "fee": "no", "name": "Atat\u00fcrk Museum, \u015ei\u015fli", "name:en": "Atat\u00fcrk Museum, \u015ei\u015fli", "name:tr": "Atat\u00fcrk M\u00fczesi", "note": "The museum houses personal belongings of Atat\u00fcrk like clothes and collections, other than historical documents, photographs and paintings of his lifetime.", "opening_hours": "Mo-We,Fr-Sa 09:00-16:00", "tourism": "museum", "wikidata": "Q3701681", "wikipedia": "en:Atat\u00fcrk Museum, \u015ei\u015fli"}}, {"type": "node", "id": 3195027800, "lat": 41.0362806, "lon": 28.9841655, "tags": {"email": "danisma.istanbul@ifturquie.org", "fee": "no", "name": "Frans\u0131z K\u00fclt\u00fcr Merkezi", "name:en": "French Institute in Istanbul", "name:fr": "Institut fran\u00e7ais \u00e0 Istanbul", "phone": "08507556800", "tourism": "museum", "website": "https://ifturquie.org/"}}, {"type": "node", "id": 3254396169, "lat": 41.0482849, "lon": 29.0188194, "tags": {"name": "Y\u0131ld\u0131z Seramik Fabrikas\u0131", "name:tr": "Y\u0131ld\u0131z Seramik Fabrikas\u0131", "tourism": "museum"}}, {"type": "node", "id": 3254468506, "lat": 41.0387821, "lon": 28.9771474, "tags": {"addr:housenumber": "10", "addr:street": "Tatl\u0131 Badem Sokak", "email": "contact@muze.gen.tr", "name": "Adam Mickiewicz M\u00fczesi", "name:en": "Adam Mickiewicz Museum", "name:ru": "\u043c\u0443\u0437\u0435\u0439 \u0410\u0434\u0430\u043c\u0430 \u041c\u0438\u0446\u043a\u0435\u0432\u0438\u0447\u0430", "name:tr": "Adam Mickiewicz M\u00fczesi", "opening_hours": "Tu-Su 09:00-16:30", "tourism": "museum", "website": "https://muze.gen.tr/muze-detay/adam", "wikidata": "Q4679495"}}, {"type": "node", "id": 3279398393, "lat": 41.0308716, "lon": 28.9797952, "tags": {"fee": "yes", "name": "Masumiyet M\u00fczesi", "name:en": "The Museum of Innocence", "name:ru": "\u041c\u0443\u0437\u0435\u0439 \u043d\u0435\u0432\u0438\u043d\u043d\u043e\u0441\u0442\u0438", "name:tr": "Masumiyet M\u00fczesi", "note": "Turkish Nobel laureate Orhan Pamuk created the muse Turkish Nobel laureate Orhan Pamuk created the museum in conjunction with his novel.um in conjunction with his novel of the same name. 1000 of every object 1950-1980.", "opening_hours": "Tu-Su 10:00-18:00; Th 10:00-21:00", "tourism": "museum", "website": "http://www.masumiyetmuzesi.org", "website:en": "http://www.masumiyetmuzesi.org/?Language=ENG", "website:tr": "http://www.masumiyetmuzesi.org/?Language=TUR", "wheelchair": "no", "wikidata": "Q15961492", "wikipedia": "en:The Museum of Innocence (museum)"}}, {"type": "node", "id": 3373094254, "lat": 41.0056817, "lon": 28.9786693, "tags": {"name": "Hal\u0131 M\u00fczesi", "name:en": "Carpet Museum", "name:ru": "\u041c\u0443\u0437\u0435\u0439 \u043a\u043e\u0432\u0440\u043e\u0432 \u0438 \u043a\u0438\u043b\u0438\u043c\u043e\u0432", "tourism": "museum"}}, {"type": "node", "id": 3374678647, "lat": 41.0088088, "lon": 28.9690637, "tags": {"historic": "monument", "name": "Koca Sinan Pa\u015fa K\u00fclliyesi", "name:ru": "\u041a\u043e\u043c\u043f\u043b\u0435\u043a\u0441 \u041a\u043e\u0434\u0436\u0430 \u0421\u0438\u043d\u0430\u043d-\u043f\u0430\u0448\u0438"}}, {"type": "node", "id": 3374678648, "lat": 41.0087157, "lon": 28.9677599, "tags": {"historic": "monument", "name": "Kara Mustafa Pa\u015fa K\u00fclliyesi", "name:ru": "\u041c\u0435\u0434\u0440\u0435\u0441\u0435 \u041a\u0430\u0440\u0430 \u041c\u0443\u0441\u0442\u0430\u0444\u044b-\u043f\u0430\u0448\u0438 \u041c\u0435\u0440\u0437\u0438\u0444\u043e\u0433\u043b\u0443", "name:tr": "Bayazit", "wheelchair": "limited"}}, {"type": "node", "id": 3374681017, "lat": 41.0084081, "lon": 28.9699808, "tags": {"historic": "monument", "name": "Atik Ali Pa\u015fa Medresesi"}}, {"type": "node", "id": 3383039241, "lat": 41.0087737, "lon": 28.9423415, "tags": {"historic": "monument", "name": "Bayram Pa\u015fa K\u00fclliyesi"}}, {"type": "node", "id": 3386270532, "lat": 41.0334816, "lon": 28.9769398, "tags": {"name": "Galatasaray M\u00fczesi", "name:en": "Galatasaray Museum", "tourism": "museum", "wheelchair": "no", "wikidata": "Q3329724"}}, {"type": "node", "id": 3400112453, "lat": 40.9935689, "lon": 28.9239308, "tags": {"name": "Yedi Kule Hisar\u0131 M\u00fczesi", "tourism": "museum"}}, {"type": "node", "id": 3459530817, "lat": 41.0151322, "lon": 28.9764151, "tags": {"information": "office", "name": "Turist Bilgi Merkezi", "name:en": "Tourist Information Center", "tourism": "information", "wheelchair": "yes"}}, {"type": "node", "id": 3580821812, "lat": 41.0387821, "lon": 28.9771474, "tags": {"name": "Muzeum Adama Mickiewicza", "tourism": "museum"}}, {"type": "node", "id": 3672537194, "lat": 41.0058436, "lon": 28.9788079, "tags": {"information": "office", "name": "Travel Information", "tourism": "information", "website": "https://privateistanbultours.com/"}}, {"type": "node", "id": 3811143694, "lat": 41.029581, "lon": 28.9789875, "tags": {"name": "Kartonpiyer M\u00fczesi", "name:de": "Stuck Museum", "name:en": "Stucco Museum", "tourism": "museum"}}, {"type": "node", "id": 4031869601, "lat": 41.0607508, "lon": 28.947846, "tags": {"name": "Panorama Zafer M\u00fczesi", "name:en": "Panoramic Victory Museum", "tourism": "museum"}}, {"type": "node", "id": 4057360456, "lat": 41.0685915, "lon": 29.0299016, "tags": {"historic": "memorial", "name": "Ahmet Adnan Saygun Heykeli", "tourism": "artwork"}}, {"type": "node", "id": 4124679395, "lat": 41.0804593, "lon": 29.0274469, "tags": {"name": "Akatlar K\u00fclt\u00fcr Merkezi", "tourism": "attraction"}}, {"type": "node", "id": 4179013338, "lat": 41.0185921, "lon": 28.9707767, "tags": {"name": "Bosphorus Tours Rejsy", "opening_hours": "Mo-Su 10:00-21:00", "tourism": "attraction"}}, {"type": "node", "id": 4285636389, "lat": 41.0174472, "lon": 28.9750319, "tags": {"name": "\u0431\u043e\u0441\u0444\u043e\u0440 \u043f\u0430\u0440\u043e\u043c", "name:es": "long tour b\u00f3sforo. 25 TY ida y vuelta", "tourism": "information"}}, {"type": "node", "id": 4286601021, "lat": 41.0092561, "lon": 28.9531937, "tags": {"addr:city": "Aksaray/\u0130stanbul", "historic": "monument", "name": "Gizia Saat Kulesi"}}, {"type": "node", "id": 4303108295, "lat": 41.0374102, "lon": 28.8831962, "tags": {"historic": "monument", "name": "Atat\u00fcrk An\u0131t\u0131"}}, {"type": "node", "id": 4330819713, "lat": 40.9922809, "lon": 28.8453447, "tags": {"historic": "monument", "name": "Atat\u00fcrk", "name:tr": "Atat\u00fcrk An\u0131t\u0131"}}, {"type": "node", "id": 4335601789, "lat": 41.0727512, "lon": 28.9942544, "tags": {"historic": "monument", "name": "Mecidiyek\u00f6y Abidesi"}}, {"type": "node", "id": 4349443989, "lat": 41.0670737, "lon": 28.8053667, "tags": {"name": "aia sofia", "tourism": "information"}}, {"type": "node", "id": 4390357493, "lat": 40.98816, "lon": 28.88538, "tags": {"name": "Veliefendi Hipodrumu", "name:tr": "Veliefendi Hipodrumu", "tourism": "attraction"}}, {"type": "node", "id": 4395594091, "lat": 40.8829671, "lon": 29.0892565, "tags": {"name": "R\u00fczgar De\u011firmeni", "name:tr": "R\u00fczgar De\u011firmeni", "tourism": "attraction"}}, {"type": "node", "id": 4406236961, "lat": 41.0632697, "lon": 29.0619484, "tags": {"artwork_type": "bust", "name": "Fatin G\u00f6kmen B\u00fcst\u00fc", "tourism": "artwork"}}, {"type": "node", "id": 4408731596, "lat": 40.9834744, "lon": 29.0401299, "tags": {"historic": "monument", "name": "Mine Gayrimenkul Dan\u0131\u015fmanl\u0131k ve Tesis Y\u00f6netim Hizmetleri", "name:tr": "Mine Gayrimenkul Dan\u0131\u015fmanl\u0131k ve Tesis Y\u00f6netim Hizmetleri"}}, {"type": "node", "id": 4472338000, "lat": 41.0457795, "lon": 28.8963566, "tags": {"addr:city": "Istanbul", "addr:district": "Bayampa\u015fa", "addr:housenumber": "54", "addr:neighbourhood": "Pa\u015fa Caddesi", "addr:postcode": "34045", "addr:street": "Kocatepe Mahallesi", "name": "LEGOLAND Discovery Center", "opening_hours": "Mo-Su 10:00-20:00", "tourism": "theme_park", "website": "https://www.legolanddiscoverycentre.com/istanbul/"}}, {"type": "node", "id": 4477143891, "lat": 41.0507108, "lon": 29.0117042, "tags": {"name": "Y\u0131ld\u0131z Saray\u0131", "name:en": "Y\u0131ld\u0131z Palace", "name:ru": "\u0414\u0432\u043e\u0440\u0435\u0446 \u0419\u044b\u043b\u0434\u044b\u0437", "tourism": "attraction", "website": "https://muze.gen.tr/", "wikidata": "Q911734"}}, {"type": "node", "id": 4504321792, "lat": 40.9890049, "lon": 29.0417255, "tags": {"historic": "monument", "name": "Tombili Heykeli", "name:en": "Tombili Cat"}}, {"type": "node", "id": 4511219615, "lat": 41.011102, "lon": 28.941797, "tags": {"name": "Molla Gurani Turbesi", "name:tr": "Molla Gurani Turbesi", "tourism": "attraction"}}, {"type": "node", "id": 4512878889, "lat": 41.0199751, "lon": 28.9582076, "tags": {"name": "Mehmet Emin Tokadi Hazretleri Turbesi", "name:tr": "Mehmet Emin Tokadi Hazretleri Turbesi", "tourism": "information"}}, {"type": "node", "id": 4516761894, "lat": 41.0073893, "lon": 28.9739484, "tags": {"name": "Binbirdirek Sarn\u0131c\u0131", "name:en": "Cistern of Binbirdirek (Philoxenos)", "name:ru": "\u0426\u0438\u0441\u0442\u0435\u0440\u043d\u0430 \u0411\u0438\u043d\u0431\u0438\u0440\u0434\u0438\u0440\u0435\u043a(\u0424\u0438\u043b\u043e\u043a\u0441\u0435\u043d\u0430)", "tourism": "attraction"}}, {"type": "node", "id": 4516829789, "lat": 41.0085546, "lon": 28.9712939, "tags": {"name": "\u00c7emberlita\u015f S\u00fctunu", "name:ar": "\u062a\u0634\u064a\u0645\u0628\u064a\u0631\u0644\u064a\u062a\u0627\u0634 \u0633\u0648\u062a\u0648\u0646\u0648", "name:de": "Konstantinss\u00e4ule", "name:en": "Column of Constantine", "name:es": "Columna de Constantino", "name:ru": "\u041a\u043e\u043b\u043e\u043d\u043d\u0430 \u041a\u043e\u043d\u0441\u0442\u0430\u043d\u0442\u0438\u043d\u0430 ( \u0427\u0435\u043c\u0431\u0435\u0440\u043b\u0438\u0442\u0430\u0448 \u0421\u044e\u0442\u0443\u043d\u0443)", "name:tr": "\u00c7emberlita\u015f S\u00fctunu", "tourism": "attraction", "wikidata": "Q1247287", "wikipedia": "de:Konstantinss\u00e4ule"}}, {"type": "node", "id": 4538278690, "lat": 40.978067, "lon": 28.8245084, "tags": {"name": "Skyteam Lounge", "name:en": "skyteam Lounge", "opening_hours": "24/7", "tourism": "attraction", "website": "https://www.skyteam.com/"}}, {"type": "node", "id": 4549090632, "lat": 41.0482025, "lon": 29.2399897, "tags": {"historic": "monument", "name": "Atat\u00fcrk Heykeli"}}, {"type": "node", "id": 4580125160, "lat": 40.8741241, "lon": 29.1286022, "tags": {"historic": "monument", "int_name": "Clock Tower", "name": "Saat Kulesi", "name:en": "Clock Tower"}}, {"type": "node", "id": 4580166831, "lat": 41.0485148, "lon": 29.2391077, "tags": {"name": "Alemda\u011f Belnet Bilgi Evi", "tourism": "information"}}, {"type": "node", "id": 4591595605, "lat": 41.0113817, "lon": 28.9408685, "tags": {"name": "cuma pazar", "name:ar": "\u0628\u0627\u0632\u0627\u0631 \u0627\u0644\u062c\u0645\u0639\u0629", "tourism": "attraction"}}, {"type": "node", "id": 4614983789, "lat": 40.8867421, "lon": 29.1791771, "tags": {"name": "Park", "name:tr": "Park", "tourism": "attraction"}}, {"type": "node", "id": 4630953458, "lat": 40.9717366, "lon": 29.0680361, "tags": {"artwork_type": "statue", "name": "Man Statue", "tourism": "artwork"}}, {"type": "node", "id": 4695996389, "lat": 41.0146409, "lon": 28.9856774, "tags": {"name": "Gotlar S\u00fctunu", "name:en": "Column of the Goths", "name:uk": "\u0413\u043e\u0442\u0441\u044c\u043a\u0430 \u043a\u043e\u043b\u043e\u043d\u0430", "tourism": "attraction"}}, {"type": "node", "id": 4721808990, "lat": 41.0101095, "lon": 28.969963, "tags": {"name": "Kapali Carsi", "name:de": "Gro\u00dfer Bazar", "name:en": "Grand Bazaar", "name:fa": "\u0628\u0627\u0632\u0627\u0631 \u0628\u0632\u0631\u06af", "name:it": "Gran Bazar", "name:ru": "\u0411\u043e\u043b\u044c\u0448\u043e\u0439 \u0431\u0430\u0437\u0430\u0440", "name:tr": "Kapal\u0131 Car\u015f\u0131", "name:zh": "2-1\u5927\u5df4\u624e", "tourism": "museum"}}, {"type": "node", "id": 4731261022, "lat": 41.1206302, "lon": 29.0684655, "tags": {"name": "Aya Nikola Rum Ortodoks Kilisesi", "name:tr": "Aya Nikola Rum Ortodoks Kilisesi", "tourism": "attraction"}}, {"type": "node", "id": 4735133334, "lat": 40.9846782, "lon": 29.0270008, "tags": {"name": "Ekmek\u00e7i Berkin'i Ar\u0131yor", "tourism": "artwork"}}, {"type": "node", "id": 4736022622, "lat": 41.159388, "lon": 29.0396946, "tags": {"name": "Surp H\u0131ripsimyans Ermeni Apostok Kilisesi", "name:tr": "Surp H\u0131ripsimyans Ermeni Apostok Kilisesi", "tourism": "attraction"}}, {"type": "node", "id": 4739616223, "lat": 41.0155891, "lon": 28.9702188, "tags": {"name": "\u0646\u0648\u0631 \u0627\u0648\u0628\u0643", "name:fr": "bazar \u00e9gyptien", "name:tr": "\u0646\u0648\u0631 \u0627\u0648\u0628\u0643", "tourism": "attraction"}}, {"type": "node", "id": 4788130621, "lat": 41.162287, "lon": 29.08463, "tags": {"name": "Hz Yu\u015fa Cami", "name:ru": "\u041c\u043e\u0433\u0438\u043b\u0430 \u0421\u0432\u044f\u0442\u043e\u0433\u043e \u042e\u0448\u0438", "tourism": "attraction"}}, {"type": "node", "id": 4814741923, "lat": 41.0389527, "lon": 28.9869411, "tags": {"name": "Gezi Park\u0131 F\u0131skiye", "name:ar": "\u0633\u0627\u062d\u0629 \u062a\u0642\u0633\u064a\u0645", "tourism": "attraction", "wheelchair": "yes"}}, {"type": "node", "id": 4878137863, "lat": 40.8564975, "lon": 29.1250164, "tags": {"addr:street": "Aya Nikola Mevkii", "name": "Museum of the Princes' Islands", "name:tr": "Adalar M\u00fczesi", "opening_hours": "Tu-Su 09:00-18:00", "tourism": "museum", "website": "http://www.adalarmuzesi.org/cms/english", "wikidata": "Q20474042", "wikipedia": "en:Museum of the Princes' Islands"}}, {"type": "node", "id": 4889905031, "lat": 41.023968, "lon": 28.9738671, "tags": {"name": "Anna Laudel Contemporary", "name:en": "Anna Laudel Contemporary", "name:tr": "Anna Laudel Contemporary", "tourism": "artwork"}}, {"type": "node", "id": 4889905032, "lat": 41.0238724, "lon": 28.9734736, "tags": {"addr:city": "Istanbul", "addr:district": "Karak\u00f6y", "addr:housenumber": "11", "addr:postcode": "34420", "addr:street": "Bankalar Caddesi", "name": "SALT Galata", "name:en": "SALT Galata", "name:tr": "SALT Galata", "opening_hours": "Tu-Sa 09:00-20:00; Su 12:00-18:00", "phone": "+90 212 334 22 00", "tourism": "museum", "website": "https://saltonline.org/"}}, {"type": "node", "id": 4889905033, "lat": 41.0096327, "lon": 29.0143802, "tags": {"historic": "monument", "name": "B\u00fck\u00fcc\u00fcler Han", "name:en": "B\u00fck\u00fcc\u00fcler Han", "name:tr": "B\u00fck\u00fcc\u00fcler Han"}}, {"type": "node", "id": 4889958232, "lat": 41.0303466, "lon": 28.9754498, "tags": {"addr:housenumber": "160A", "addr:postcode": "34433", "addr:street": "\u0130stiklal Caddesi", "name": "Borusan Sanat", "name:en": "Borusan Art", "name:tr": "Borusan Sanat", "opening_hours": "Mo-Fr 09:30-18:00", "phone": "+902127058700", "tourism": "museum", "wheelchair": "no"}}, {"type": "node", "id": 4889958233, "lat": 41.0343692, "lon": 28.9822141, "tags": {"name": "Istanbul Fotograf Galerisi", "name:en": "The Photographer's Gallery", "name:tr": "Istanbul Fotograf Galerisi", "tourism": "museum"}}, {"type": "node", "id": 4889958234, "lat": 41.0332891, "lon": 28.9795904, "tags": {"name": "ISTANBUL'74", "name:en": "ISTANBUL'74", "name:tr": "ISTANBUL'74", "tourism": "museum"}}, {"type": "node", "id": 4889959130, "lat": 41.0583185, "lon": 28.9808053, "tags": {"name": "Bomontiada", "name:en": "Bomontiada", "name:tr": "Bomontiada", "tourism": "attraction"}}, {"type": "node", "id": 4889959134, "lat": 41.0103358, "lon": 29.0166858, "tags": {"name": "Selimiye Hamami", "name:en": "Selimiye Hamami", "name:tr": "Selimiye Hamami", "tourism": "attraction"}}, {"type": "node", "id": 4889959431, "lat": 41.0304385, "lon": 28.9757547, "tags": {"addr:housenumber": "181", "addr:postcode": "34433", "addr:street": "\u0130stiklal Caddesi", "name": "ARTER", "name:en": "ARTER", "name:tr": "ARTER", "opening_hours": "Tu-Th 11:00-19:00; Fr-Su 12:00-20:00", "phone": "+902127085800", "tourism": "museum", "website": "http://www.arter.org.tr", "wheelchair": "limited"}}, {"type": "node", "id": 4889959432, "lat": 41.0359742, "lon": 28.9831213, "tags": {"fee": "no", "name": "AK Bank Sanat Galerisi", "name:en": "AK Bank Sanat Galerisi", "name:tr": "AK Bank Sanat Galerisi", "opening_hours": "Tu-Sa 14:00-19:00; Su,Mo off", "tourism": "museum", "wheelchair": "limited"}}, {"type": "node", "id": 4889959434, "lat": 41.0357703, "lon": 28.9783705, "tags": {"name": "Dogan\u00e7ay M\u00fczesi", "name:en": "Dogan\u00e7ay M\u00fczesi", "name:tr": "Dogan\u00e7ay M\u00fczesi", "tourism": "museum"}}, {"type": "node", "id": 4889959435, "lat": 41.0326418, "lon": 28.9777224, "tags": {"name": "T\u00fcrvak T\u00fcrker Inanoglu Vakfi", "name:en": "Cinema Museum", "name:tr": "T\u00fcrvak T\u00fcrker Inanoglu Vakfi", "tourism": "museum"}}, {"type": "node", "id": 4895209121, "lat": 41.0086939, "lon": 28.9557286, "tags": {"name": "Laleli", "name:ar": "\u0644\u0627\u0644\u0644\u064a", "name:tr": "Laleli", "tourism": "attraction"}}, {"type": "node", "id": 4920628724, "lat": 41.0074547, "lon": 29.0435884, "tags": {"name": "Terrace Fulya", "name:tr": "Terrace Fulya", "tourism": "attraction"}}, {"type": "node", "id": 4934434424, "lat": 41.0073268, "lon": 28.9862742, "tags": {"name": "Beach", "name:tr": "BEACH", "tourism": "attraction"}}, {"type": "node", "id": 4941278121, "lat": 41.0292842, "lon": 28.9711398, "tags": {"name": "Horse Design", "name:tr": "Horse Design", "tourism": "artwork"}}, {"type": "node", "id": 4952542729, "lat": 41.0441125, "lon": 28.9861601, "tags": {"addr:city": "Istanbul", "addr:district": "\u015ei\u015fli", "addr:housenumber": "2", "addr:street": "Babil Sokak", "alt_name": "Travel Zone", "name": "Travezone", "name:en": "Travelzone", "name:tr": "Travezone", "phone": "+90 212 219 83 83", "shop": "travel_agency", "tourism": "artwork"}}, {"type": "node", "id": 4966376521, "lat": 41.0455958, "lon": 28.896211, "tags": {"name": "Turkuazoo", "name:en": "sea life", "name:tr": "Turkuazoo", "tourism": "attraction"}}, {"type": "node", "id": 4988111427, "lat": 41.0025313, "lon": 28.9761476, "tags": {"name": "Bukoleon Sarayi Kalintilari", "name:en": "Ruins of Bucoleon Palace", "name:tr": "Bukoleon Sarayi Kalintilari", "tourism": "attraction"}}, {"type": "node", "id": 4990028128, "lat": 41.0087318, "lon": 28.9809561, "tags": {"addr:city": "\u0130stanbul", "addr:district": "Fatih", "addr:housenumber": "14", "addr:neighbourhood": "Cankurtaran Mahallesi", "addr:postcode": "34122", "addr:street": "So\u011fuk\u00e7e\u015fme Sokak", "email": "info@halimuzesi.com", "name": "Hal\u0131 M\u00fczesi", "name:ar": "\u0645\u062a\u062d\u0641 \u0627\u0644\u0633\u062c\u0627\u062f", "name:de": "Teppichmuseum", "name:en": "Carpet Museum", "name:es": "Museo de las alfombras", "name:it": "Museo del tappeto", "name:ru": "\u041c\u0443\u0437\u0435\u0439 \u041a\u043e\u0432\u0440\u043e\u0432", "name:tr": "Hal\u0131 M\u00fczesi", "phone": "+90 212 512 69 93", "tourism": "museum", "website": "http://www.halimuzesi.com"}}, {"type": "node", "id": 5001163522, "lat": 40.9904633, "lon": 29.1259102, "tags": {"historic": "monument", "name": "M.K. Atat\u00fcrk & Salvador Allende"}}, {"type": "node", "id": 5034224421, "lat": 41.0617664, "lon": 28.9426822, "tags": {"name": "Dolphinarium", "name:tr": "Dolphinarium", "tourism": "attraction"}}, {"type": "node", "id": 5052980822, "lat": 41.0341556, "lon": 28.9839572, "tags": {"name": "\u0641\u0646\u062f\u0642\u0646\u0627", "name:tr": "\u0641\u0646\u062f\u0642\u0646\u0627", "tourism": "attraction"}}, {"type": "node", "id": 5069978737, "lat": 40.976105, "lon": 28.8750336, "tags": {"amenity": "school", "amenity_1": "language_school", "name": "T\u00fcrk Amerikan Derne\u011fi Yabanc\u0131 Dil Kurslar\u0131", "tourism": "attraction", "website": "http://www.tadbakirkoy.com/"}}, {"type": "node", "id": 5072883321, "lat": 41.0080883, "lon": 28.9755828, "tags": {"name": "\u062a\u0631\u0627\u0645 \u0633\u0644\u0637\u0627\u0646", "name:tr": "\u062a\u0631\u0627\u0645 \u0633\u0644\u0637\u0627\u0646", "tourism": "attraction"}}, {"type": "node", "id": 5076114611, "lat": 40.9919043, "lon": 28.9220657, "tags": {"addr:city": "Istanbul", "addr:district": "Fatih", "name": "Altinkapi", "name:ar": "\u0623\u0644\u062a\u0646 \u0643\u0627\u0628\u064a", "tourism": "attraction"}}, {"type": "node", "id": 5081442512, "lat": 41.0252799, "lon": 28.9584325, "tags": {"addr:city": "Istanbul", "addr:district": "Fatih", "addr:street": "Nal\u0131nc\u0131 Kas\u0131m Sokak", "name": "Rezan Has Museum", "name:ar": "\u0645\u062a\u062d\u0641 \u0631\u064a\u0632\u0627\u0646 \u0647\u0627\u0633", "name:tr": "Rezan Has M\u00fczesi", "tourism": "museum", "wikidata": "Q7319839"}}, {"type": "node", "id": 5097963021, "lat": 41.0057459, "lon": 28.8818346, "tags": {"name": "\u0645\u062d\u0637\u0647 \u0645\u062d\u0645\u062f \u0639\u0627\u0643\u0641 \u0645\u0644\u0627\u0628\u0633 \u062c\u0645\u0644\u0647", "name:tr": "Mohamed Akef Giysi Fabrikas\u0131", "tourism": "attraction"}}, {"type": "node", "id": 5100785041, "lat": 41.0085155, "lon": 28.8858357, "tags": {"name": "\u0645\u0633\u062c\u062f \u0645\u0627\u0631\u062a\u0631", "name:tr": "\u0645\u0633\u062c\u062f \u0645\u0627\u0631\u062a\u0631", "tourism": "attraction"}}, {"type": "node", "id": 5100793742, "lat": 41.0084323, "lon": 28.8857662, "tags": {"name": "\u0645\u0633\u062c\u062f \u0645\u0627\u062a\u064a\u0631", "name:tr": "\u0645\u0633\u062c\u062f \u0645\u0627\u062a\u064a\u0631", "tourism": "attraction"}}, {"type": "node", "id": 5103810789, "lat": 41.0196249, "lon": 28.9277844, "tags": {"addr:city": "Istanbul", "addr:district": "Fatih", "addr:street": "Topkap\u0131 caddesi", "name": "Hamidiye K\u00fclt\u00fcr Ve E\u011fitim Vakf\u0131 Topkap\u0131 Nusret", "name:ar": "\u0645\u062a\u062d\u0641 \u062d\u0627\u0645\u062f\u064a\u0629 \u0627\u0644\u062b\u0642\u0627\u0641\u064a \u0648 \u0627\u0644\u062a\u0639\u0644\u064a\u0645\u064a", "tourism": "museum"}}, {"type": "node", "id": 5105090523, "lat": 41.0707133, "lon": 28.9215171, "tags": {"addr:city": "Istanbul", "addr:district": "Ey\u00fcp", "addr:housenumber": "No: 11/1", "addr:neighbourhood": "Ye\u015filp\u0131nar Mahallesi", "addr:postcode": "34065", "addr:street": "\u015eehit Metin Kaya Sokak", "description": "\u0130sfanbul ya da eski ad\u0131yla Vialand T\u00fcrkiye\u2019de in\u015fa edilmi\u015f ilk temal\u0131 parkt\u0131r. \u0130stanbul ilinin Ey\u00fcpsultan ve Gaziosmanpa\u015fa il\u00e7eleri \u00fczerinde yer alan park 26 May\u0131s 2013 tarihinde d\u00f6nemin ba\u015fbakan\u0131 Recep Tayyip Erdo\u011fan taraf\u0131ndan resmen hizmete a\u00e7\u0131ld\u0131. ", "name": "\u0130sfanbul Tema Park", "operator": "\u0130sfanbul", "tourism": "theme_park"}}, {"type": "node", "id": 5107245419, "lat": 41.0061082, "lon": 28.9219096, "tags": {"addr:city": "Istanbul", "addr:district": "Fatih", "addr:street": "Silivrikap\u0131 Caddesi", "name": "Silivrikap\u0131", "name:ar": "\u0633\u064a\u0644\u064a\u0641\u0631\u064a \u0643\u0627\u0628\u0648", "operator": "Govermental", "tourism": "attraction"}}, {"type": "node", "id": 5108828006, "lat": 41.0128714, "lon": 28.9778917, "tags": {"addr:city": "Istanbul", "addr:district": "Fatih", "addr:street": "H\u00fcdavendigar Caddesi", "name": "Lions Rug and kilims Art Gallery", "name:ar": "\u0645\u062a\u062d\u0641 \u0644\u064a\u0648\u0646\u0632 \u0631\u0648\u063a \u0648 \u0643\u064a\u0644\u064a\u0645\u0633 \u0623\u0631\u062a \u063a\u0627\u0644\u0627\u0631\u064a", "phone": "+90 212 512 71 23", "tourism": "museum"}}, {"type": "node", "id": 5108828672, "lat": 41.0147801, "lon": 28.9790412, "tags": {"addr:city": "Istanbul", "addr:district": "Fatih", "addr:street": "Taya Hatun Caddesi", "name": "II. Abd\u00fclhamit \u00c7e\u015fmesi", "name:ar": "\u0633\u0628\u064a\u0644 \u0639\u0628\u062f \u0627\u0644\u062d\u0645\u064a\u062f \u0627\u0644\u062b\u0627\u0646\u064a", "tourism": "attraction"}}, {"type": "node", "id": 5108828680, "lat": 41.0152694, "lon": 28.9770206, "tags": {"addr:city": "Istanbul", "addr:district": "Fatih", "addr:postcode": "34110", "addr:street": "Sirkeci \u0130stasyon Caddesi", "name": "\u0130stanbul Demiryolu M\u00fczesi", "name:ar": "\u0645\u062a\u062d\u0641 \u0627\u0644\u0633\u0643\u0643 \u0627\u0644\u062d\u062f\u064a\u062f\u064a\u0629 \u0627\u0633\u0637\u0646\u0628\u0648\u0644", "name:en": "\u0130stanbul Railway Museum", "opening_hours": "Tu-Sa 09:00-17:00", "phone": "(0212) 520 65 75", "tourism": "museum"}}, {"type": "node", "id": 5108836360, "lat": 41.0123632, "lon": 28.9776407, "tags": {"addr:city": "Istanbul", "addr:district": "Fatih", "addr:street": "Ebussuut Caddesi", "name": "Sultan Spa and Wellness Center", "name:ar": "\u0645\u0631\u0643\u0632 \u0639\u0646\u0627\u064a\u0629 \u0648\u0645\u0646\u062a\u062c\u0639 \u0633\u0644\u0637\u0627\u0646", "phone": "+90 212 528 08 06", "tourism": "attraction"}}, {"type": "node", "id": 5108837421, "lat": 41.0135026, "lon": 28.9752953, "tags": {"addr:city": "Istanbul", "addr:district": "Fatih", "addr:street": "Ebussuut Caddesi", "information": "office", "name": "Ta\u015fkent Dan\u0131\u015fmanl\u0131k Turizm Ticaret", "name:ar": "\u062a\u0627\u0634\u0643\u064a\u0646\u062a \u062f\u0627\u0646\u0634\u0645\u0627\u0646\u0644\u0643 \u062a\u0648\u0631\u064a\u0632\u0645 \u062a\u064a\u062c\u0627\u0631\u064a\u062a", "phone": "+90 212 527 18 83", "tourism": "information"}}, {"type": "node", "id": 5108837436, "lat": 41.0142713, "lon": 28.9756894, "tags": {"addr:city": "Istanbul", "addr:district": "Fatih", "addr:street": "Hocapa\u015fa Hamam\u0131 Soka\u011f\u0131", "name": "Hodjapasta", "name:ar": "\u0645\u062a\u062d\u0641 \u0647\u0648\u062f\u062c\u0627\u0628\u0627\u0633\u062a\u0627", "name:ru": "\u0425\u043e\u0434\u0436\u0430\u043f\u0430\u0448\u0430", "tourism": "museum"}}, {"type": "node", "id": 5108837438, "lat": 41.0140444, "lon": 28.9756133, "tags": {"addr:city": "Istanbul", "addr:district": "Fatih", "addr:street": "Hoca Pa\u015fa Sokak", "name": "Tasciri Spettacolo", "name:ar": "\u0645\u062a\u062d\u0641 \u062a\u0627\u0633\u062c\u064a\u0631\u064a \u0633\u0628\u064a\u062a\u0627\u062c\u0648\u0644\u0648", "tourism": "museum"}}, {"type": "node", "id": 5108838368, "lat": 41.0111434, "lon": 28.9779823, "tags": {"addr:city": "Istanbul", "addr:district": "Fatih", "addr:street": "Alayk\u00f6\u015fk\u00fc Caddesi", "name": "Pa\u015fa Kap\u0131s\u0131", "name:ar": "\u0628\u0627\u0634\u0627 \u0643\u0627\u0628\u0633\u064a", "tourism": "attraction"}}, {"type": "node", "id": 5108843098, "lat": 41.0080019, "lon": 28.9767691, "tags": {"addr:city": "Istanbul", "addr:district": "Fatih", "addr:street": "Divan Yolu Caddesi", "name": "Cevri Kalfa \u00c7e\u015fmesi", "name:ar": "\u0633\u0628\u064a\u0644 \u062c\u064a\u0641\u0631\u064a \u0643\u0627\u0644\u0641\u0627", "tourism": "attraction"}}, {"type": "node", "id": 5108843107, "lat": 41.0079844, "lon": 28.9778746, "tags": {"addr:city": "Istanbul", "addr:district": "Fatih", "addr:street": "Divanyolu Caddesi", "name": "Milyon Ta\u015f\u0131", "name:ar": "\u062d\u062c\u0631 \u0645\u064a\u0644\u064a\u0648\u0646 \u062a\u0627\u0634\u064a \u0627\u0644\u0633\u064a\u0627\u062d\u064a\u0629", "name:en": "Milion Stone", "name:ru": "\u0410\u0440\u043a\u0430 \u00ab\u0417\u043e\u043b\u043e\u0442\u0430\u044f \u043c\u0438\u043b\u044f\u00bb", "tourism": "attraction"}}, {"type": "node", "id": 5108843109, "lat": 41.0082703, "lon": 28.977987, "tags": {"addr:city": "Istanbul", "addr:district": "Fatih", "addr:street": "Yerebatan Caddesi", "name": "Hac\u0131 Be\u015fir A\u011fa \u00c7e\u015fmesi", "name:ar": "\u0633\u0628\u064a\u0644 \u0647\u0627\u062c\u064a \u0628\u0634\u064a\u0631 \u0623\u063a\u0627", "tourism": "attraction"}}, {"type": "node", "id": 5108843570, "lat": 41.0103022, "lon": 28.9784286, "tags": {"addr:city": "Istanbul", "addr:district": "Fatih", "addr:street": "Alemdar Caddesi", "name": "Hamidiye \u00c7e\u015fmesi ve Sebili", "name:ar": "\u0633\u0628\u064a\u0644 \u0647\u0627\u0645\u064a\u062f\u064a\u064a", "tourism": "attraction"}}, {"type": "node", "id": 5111212308, "lat": 41.0161663, "lon": 28.972621, "tags": {"addr:city": "Istanbul", "addr:district": "Fatih", "addr:housenumber": "02125111331", "addr:street": "Bankac\u0131lar Sokak", "email": "info@isbankmuze.com.tr", "name": "\u0130\u015f Bankas\u0131 M\u00fczesi", "name:ar": "\u0627\u0634 \u0628\u0627\u0646\u0643\u0627\u0633\u064a \u0645\u064a\u0648\u0632\u064a\u0645", "name:en": "\u0130\u015fbank Museum", "name:tr": "T\u00fcrkiye \u0130\u015f Bankas\u0131 M\u00fczesi", "opening_hours": "Mo-Su 10:00-18:00", "tourism": "museum", "website": "https://muze.isbank.com.tr/", "wikidata": "Q16850066"}}, {"type": "node", "id": 5112723898, "lat": 41.0036705, "lon": 28.9287438, "tags": {"addr:city": "Istanbul", "addr:district": "Fatih", "addr:street": "Koca Mustafapa\u015fa Caddesi", "name": "Hac\u0131 Be\u015fir A\u011fa \u00c7e\u015fmesi", "name:ar": "\u0646\u0627\u0641\u0648\u0631\u0629 \u062d\u062c\u064a \u0628\u0634\u064a\u0631 \u0622\u063a\u0627", "tourism": "attraction"}}, {"type": "node", "id": 5112732265, "lat": 41.0099458, "lon": 28.9615545, "tags": {"addr:city": "Istanbul", "addr:district": "Fatih", "addr:housenumber": "02124400000", "addr:street": "Ordu Caddesi", "email": "muzeyum@istanbul.edu.tr", "name": "Beyaz\u0131t T\u00fcrk Hamam K\u00fclt\u00fcr\u00fc M\u00fczesi", "name:ar": "\u0645\u062a\u062d\u0641 \u062b\u0642\u0627\u0641\u0629 \u0627\u0644\u062d\u0645\u0627\u0645 \u0627\u0644\u062a\u0631\u0643\u064a", "name:en": "II.  Bayezid Turkish Bath Culture Museum", "name:tr": "II. Bayezid T\u00fcrk Hamam K\u00fclt\u00fcr\u00fc M\u00fczesi", "tourism": "museum", "website": "https://muzeyum.istanbul.edu.tr/"}}, {"type": "node", "id": 5112738775, "lat": 41.0124428, "lon": 28.9674257, "tags": {"addr:city": "Istanbul", "addr:district": "Fatih", "addr:street": "\u00d6r\u00fcc\u00fcler Kap\u0131s\u0131 Soka\u011f\u0131", "name": "\u00d6r\u00fcc\u00fcler Hamam\u0131 Turkish Bath and Sauna", "name:ar": "\u0623\u0648\u0631\u0648\u062c\u0648\u0644\u0627\u0631 \u0647\u0627\u0645\u0627\u0645\u064a \u062a\u0648\u0631\u0643\u064a\u0634 \u0628\u0627\u062b \u062d\u0645\u0627\u0645 \u062a\u0631\u0643\u064a", "tourism": "attraction"}}, {"type": "node", "id": 5112749749, "lat": 41.033722, "lon": 28.9404346, "tags": {"addr:city": "Istanbul", "addr:district": "Fatih", "addr:street": "\u015ei\u015fhane Caddesi", "name": "Tekfur Saray\u0131", "name:ar": "\u0642\u0635\u0631 \u062a\u0643\u0641\u0648\u0631 \u0633\u0627\u0631\u0627\u064a", "tourism": "attraction", "wikidata": "Q1472490"}}, {"type": "node", "id": 5112749760, "lat": 41.0332977, "lon": 28.944349, "tags": {"addr:city": "Istanbul", "addr:district": "Fatih", "addr:street": "K\u00fcrk\u00e7\u00fc\u00e7e\u015fmesi Soka\u011f\u0131", "name": "Abdullah El Ensari T\u00fcrbesi", "name:ar": "\u0636\u0631\u064a\u062d \u0639\u0628\u062f\u0627\u0644\u0644\u0647 \u0627\u0644\u0623\u0646\u0635\u0627\u0631\u064a", "tourism": "attraction"}}, {"type": "node", "id": 5112750839, "lat": 41.039341, "lon": 28.9414828, "tags": {"addr:city": "Istanbul", "addr:district": "Fatih", "addr:street": "Toklu \u0130brahim Dede Soka\u011f\u0131", "name": "Ebu \u015eeybe El-Hudri T\u00fcrbesi", "name:ar": "\u0636\u0631\u064a\u062d \u0623\u0628\u0648 \u0634\u064a\u0628\u0629 \u0627\u0644\u062e\u062f\u0631\u064a", "tourism": "attraction"}}, {"type": "node", "id": 5112750841, "lat": 41.0397898, "lon": 28.9426406, "tags": {"addr:city": "Istanbul", "addr:district": "Fatih", "addr:street": "Ayvansaray Caddesi", "name": "Muhammed El-Ensari T\u00fcrbesi", "name:ar": "\u0636\u0631\u064a\u062d \u0645\u062d\u0645\u062f \u0627\u0644\u0623\u0646\u0635\u0627\u0631\u064a", "tourism": "attraction"}}, {"type": "node", "id": 5113500244, "lat": 41.0074938, "lon": 28.9740907, "tags": {"addr:city": "Istanbul", "addr:district": "Fatih", "addr:street": "\u0130mran \u00f6ktem caddesi", "name": "Binbirdirek saranc\u0131", "name:ar": "\u0628\u064a\u0646 \u0628\u064a\u0631 \u062f\u064a\u0631\u064a\u0643 \u0633\u0627\u0631\u0627\u0646\u062c\u0649", "tourism": "museum"}}, {"type": "node", "id": 5113500256, "lat": 41.0062218, "lon": 28.9746583, "tags": {"addr:city": "Istanbul", "addr:district": "Fatih", "addr:street": "Atmeydan\u0131 Caddesi", "email": "contact@muze.gen.tr", "internet_access": "wlan", "name": "T\u00fcrk ve \u0130slam Eserleri M\u00fczesi", "name:ar": "\u0645\u062a\u062d\u0641 \u0627\u0644\u0622\u062b\u0627\u0631 \u0627\u0644\u062a\u0631\u0643\u064a\u0629 \u0648\u0627\u0644\u0625\u0633\u0644\u0627\u0645\u064a\u0629", "name:de": "Museum f\u00fcr t\u00fcrkische und islamische Kunst", "name:en": "Museum of Turkish and Islamic arts", "name:es": "Museo de arte Turco e Isl\u00e1mico", "name:fa": "\u0645\u0648\u0632\u0647 \u0647\u0646\u0631 \u0648 \u0647\u0646\u0631 \u0627\u0633\u0644\u0627\u0645\u06cc \u062a\u0631\u06a9\u06cc\u0647", "name:he": "\u200f\u05de\u05d5\u05d6\u05d9\u05d0\u05d5\u05df \u05d4\u05d0\u05d5\u05de\u05e0\u05d5\u05ea \u05d4\u05d8\u05d5\u05e8\u05e7\u05d9\u05ea \u05d5\u05d4\u05d0\u05e1\u05dc\u05d0\u05de\u05d9\u05ea", "name:ru": "\u041c\u0443\u0437\u0435\u0438\u0306 \u0442\u0443\u0440\u0435\u0446\u043a\u043e\u0433\u043e \u0438 \u0438\u0441\u043b\u0430\u043c\u0441\u043a\u043e\u0433\u043e \u0438\u0441\u043a\u0443\u0441\u0441\u0442\u0432\u0430", "name:tr": "T\u00fcrk ve \u0130slam Eserleri M\u00fczesi", "opening_hours": "Mo-Su 09:00-19:00", "phone": "+90 212 518 18 05", "tourism": "museum", "website": "https://muze.gen.tr/"}}, {"type": "node", "id": 5113500272, "lat": 41.0078444, "lon": 28.9735074, "tags": {"addr:city": "Istanbul", "addr:district": "Fatih", "addr:housenumber": "No: 3/D", "addr:neighbourhood": "Binbirdirek Mahallesi", "addr:postcode": "34122", "addr:street": "Klod Farer Caddesi", "description": "Travel Tips Turkey is focused on offering travel managements of the most outstanding quality, consolidating our vitality and excitement, with our years of involvement in the business.", "email": "info@traveltips.com.tr", "fax": "+90 212 458 0813", "name": "Travel Tips Turkey", "name:ar": "\u062a\u0631\u0627\u0641\u0644 \u062a\u064a\u0628\u0633", "opening_hours": "Mo-Su 09:00-22:00", "payment:cash": "yes", "payment:mastercard": "yes", "payment:visa": "yes", "phone": "+90 212 458 0811", "shop": "travel_agency", "source": "local knowledge", "start_date": "2015-02-14", "tourism": "information", "website": "https://www.traveltips.com.tr"}}, {"type": "node", "id": 5113620695, "lat": 41.0130407, "lon": 28.978941, "tags": {"addr:city": "Istanbul", "addr:district": "Turkey", "name": "\u0130slam bilim ve teknoloji tarihi m\u00fczesi", "name:ar": "\u0645\u062a\u062d\u0641 \u0627\u0644\u0639\u0644\u0645 \u0648\u062a\u0644\u062a\u0643\u0646\u0648\u0644\u0648\u062c\u064a\u0627 \u0627\u0644\u0625\u0633\u0644\u0627\u0645\u064a\u0629 \u0627\u0644\u062a\u0627\u0631\u064a\u062e\u064a", "tourism": "museum"}}, {"type": "node", "id": 5115933169, "lat": 40.9997863, "lon": 28.9274893, "tags": {"addr:city": "Istanbul", "addr:district": "Fatih", "addr:street": "Hac\u0131 Kad\u0131n Caddesi", "name": "Tarihi Hac\u0131 Kad\u0131n Hamam\u0131", "name:ar": "\u062d\u0645\u0627\u0645 \u062d\u062c\u064a \u0643\u0627\u062f\u0646 \u0627\u0644\u062a\u0627\u0631\u064a\u062e\u064a", "tourism": "attraction"}}, {"type": "node", "id": 5115939964, "lat": 41.01005, "lon": 28.9631808, "tags": {"addr:city": "Istanbul", "addr:district": "Fatih", "addr:street": "Ordu Caddesi", "name": "T\u00fcrk Vak\u0131f Hat Sanatlar\u0131 M\u00fczesi", "name:ar": "\u0645\u062a\u062d\u0641 \u0627\u0644\u062e\u0637 \u0627\u0644\u062a\u0631\u0643\u064a", "name:en": "The Museum of Turkish Calligraphic Art", "name:ru": "\u041c\u0443\u0437\u0435\u0439 \u0442\u0443\u0440\u0435\u0446\u043a\u043e\u0433\u043e \u043a\u0430\u043b\u043b\u0438\u0433\u0440\u0430\u0444\u0438\u0447\u0435\u0441\u043a\u043e\u0433\u043e \u0438\u0441\u043a\u0443\u0441\u0441\u0442\u0432\u0430", "phone": "02125275851", "tourism": "museum", "website": "http://www.ibb.gov.tr/sites/ks/en-US/1-Places-To-Go/museum/Pages/museum-turkish-calligraphic-art.aspx", "wikidata": "Q6549659"}}, {"type": "node", "id": 5181982721, "lat": 40.8623461, "lon": 29.3343936, "tags": {"addr:housenumber": "2", "addr:street": "May\u0131s Sk.", "name": "Dumankaya Adres Lobi", "tourism": "attraction"}}, {"type": "node", "id": 5184094322, "lat": 40.9812405, "lon": 28.8738949, "tags": {"historic": "monument", "name": "Cumhuriyet Meydan\u0131", "name:en": "Republic Square"}}, {"type": "node", "id": 5209904925, "lat": 41.0282408, "lon": 29.0415462, "tags": {"name": "Abdulmecit Efendi K\u00f6\u015fk\u00fc", "tourism": "museum"}}, {"type": "node", "id": 5224440223, "lat": 41.0453789, "lon": 29.0345122, "tags": {"name": "15 Temmuz \u015eehitler K\u00f6pr\u00fcs\u00fc", "name:de": "Br\u00fccke der M\u00e4rtyrer des 15. Juli", "name:en": "Bosphorus Bridge", "tourism": "attraction"}}, {"type": "node", "id": 5244801843, "lat": 41.0051858, "lon": 28.9743891, "tags": {"addr:city": "Istanbul", "addr:district": "Fatih", "addr:street": "\u015eehit Mehmet Pa\u015fa Yoku\u015fu", "name": "Marmara \u00dcniversitesi Cumhuriyet M\u00fczesi ve Sanat Galerisi", "name:ar": "\u0645\u0631\u0645\u0631\u0629 \u064a\u0648\u0646\u064a\u0641\u064a\u0631\u0633\u062a\u064a \u0645\u0648\u0632\u064a\u0633\u064a \u0641\u064a \u0633\u0627\u0646\u0627\u062a \u062c\u0648\u0632\u0627\u0644", "operator": "Govermental", "tourism": "museum"}}, {"type": "node", "id": 5244801844, "lat": 41.0049596, "lon": 28.9739331, "tags": {"addr:city": "Istanbul", "addr:district": "Fatih", "addr:street": "\u015eehit Mehmet Pa\u015fa Yoku\u015fu", "name": "\u0130stanbul Cumhuriyet E\u011fitim M\u00fczesi", "name:ar": "\u0627\u0633\u062a\u0646\u0628\u0648\u0644 \u062c\u0645\u0647\u0648\u0631\u064a\u0627\u062a \u0627\u064a\u064a\u062a\u0645 \u0645\u0648\u0632\u064a\u0633\u064a", "operator": "Govermental", "tourism": "museum"}}, {"type": "node", "id": 5244803053, "lat": 41.0031805, "lon": 28.9720795, "tags": {"addr:city": "Istanbul", "addr:district": "Fatih", "addr:street": "K\u00fc\u00e7\u00fck Ayasofya Caddesi", "name": "Mehmet Efendi \u00c7e\u015fmesi", "name:ar": "\u0645\u0647\u0645\u062a \u0625\u0641\u0646\u062f\u064a \u062a\u0634\u0645\u0633\u064a", "operator": "Govermental", "tourism": "attraction"}}, {"type": "node", "id": 5244803054, "lat": 41.0030429, "lon": 28.9725515, "tags": {"addr:city": "Istanbul", "addr:district": "Fatih", "addr:street": "K\u00fc\u00e7\u00fck Ayasofya Caddesi", "name": "\u00c7o\u011falzade R\u00fcstem Pa\u015fa \u00c7e\u015fmesi", "name:ar": "\u062a\u0634\u0648\u0627\u0644\u0632\u0627\u062f\u064a \u0631\u0633\u062a\u0645 \u0628\u0627\u0634\u0627 \u062a\u0634\u0645\u0633\u064a", "operator": "Govermental", "tourism": "attraction"}}, {"type": "node", "id": 5244805876, "lat": 41.0105966, "lon": 28.9731818, "tags": {"addr:city": "Istanbul", "addr:district": "Fatih", "addr:street": "\u015eeref Efendi Sokak", "name": "Pera Spa", "name:ar": "\u0645\u0646\u062a\u062c\u0639 \u0628\u064a\u0631\u0627", "tourism": "attraction"}}, {"type": "node", "id": 5244807623, "lat": 41.0085619, "lon": 28.9722162, "tags": {"addr:city": "Istanbul", "addr:district": "Fatih", "addr:street": "Boyac\u0131 Ahmet Sokak", "name": "T\u00fcrkiye Gazeteciler Cemiyeti Bas\u0131n M\u00fczesi", "name:ar": "\u062a\u0648\u0631\u0643\u064a\u0627 \u0625\u0627\u0632\u064a\u062a\u064a\u062c\u064a\u0644\u064a\u0631 \u062c\u0645\u0639\u064a\u0627\u062a\u064a \u0628\u0627\u0633\u0646 \u0645\u0648\u0632\u064a\u0633\u064a", "name:en": "Press museum", "tourism": "museum"}}, {"type": "node", "id": 5244807624, "lat": 41.0085018, "lon": 28.9725827, "tags": {"addr:city": "Istanbul", "addr:district": "Fatih", "addr:street": "T\u00fcrbedar Sokak", "name": "Sultan II. Mahmut T\u00fcrbesi", "name:ar": "\u0633\u0644\u0637\u0627\u0646 \u0627\u0644\u062b\u0627\u0646\u064a \u0645\u062d\u0645\u0648\u062a \u062a\u0648\u0631\u0628\u064a\u0633\u064a", "tourism": "attraction"}}, {"type": "node", "id": 5244807882, "lat": 41.008669, "lon": 28.9679366, "tags": {"addr:city": "Istanbul", "addr:district": "Fatih", "addr:street": "Yeni\u00e7eriler Caddesi", "name": "Merzifonlu Kara Mustafa Pa\u015fa Medresesi", "name:ar": "\u0645\u064a\u0632\u0648\u0641\u064a\u0646\u0644\u064a \u0643\u0627\u0631\u0627 \u0645\u0635\u0637\u0641\u0649 \u0628\u0627\u0634\u0627 \u0645\u064a\u062f\u0631\u064a\u0633\u064a", "operator": "Govermental", "tourism": "attraction"}}, {"type": "node", "id": 5244807883, "lat": 41.008741, "lon": 28.967614, "tags": {"addr:city": "Istanbul", "addr:district": "Fatih", "addr:street": "Yeni\u00e7eriler Caddesi", "name": "Yahya Kemal Museum", "name:ar": "\u062a\u062d\u062a\u0649 \u0643\u0645\u0627\u0644 \u0645\u064a\u0648\u0632\u064a\u0648\u0645", "operator": "Govermental", "tourism": "museum"}}, {"type": "node", "id": 5244807985, "lat": 41.0090978, "lon": 28.9682772, "tags": {"addr:city": "Istanbul", "addr:district": "Fatih", "addr:street": "Yeni\u00e7eriler Caddesi", "name": "\u00c7orlulu Alipa\u015fa Madresesi", "tourism": "attraction"}}, {"type": "node", "id": 5257521054, "lat": 41.0188844, "lon": 29.1765548, "tags": {"name": "At\u0131l\u0131m Aquarium", "tourism": "aquarium"}}, {"type": "node", "id": 5284636252, "lat": 41.0588028, "lon": 28.9138889, "tags": {"artwork_type": "statue", "name": "Atat\u00fcrk Heykeli", "tourism": "artwork"}}, {"type": "node", "id": 5311889622, "lat": 41.0357451, "lon": 28.981708, "tags": {"name": "\u0635\u0631\u0627\u0641\u06cc", "name:en": "Beer Corner Rock Pub\u0635\u0631\u0627\u0641\u06cc", "tourism": "attraction"}}, {"type": "node", "id": 5329335403, "lat": 40.9675965, "lon": 29.2660832, "tags": {"addr:city": "Istanbul", "addr:district": "Sultanbeyli", "addr:street": "Fatih bulvar\u0131", "name": "Aycan turizm", "name:ar": "\u0627\u064a\u062c\u0627\u0646 \u0644\u0644\u0633\u064a\u0627\u062d\u0629", "phone": "02164960546", "tourism": "attraction"}}, {"type": "node", "id": 5329680421, "lat": 41.023511, "lon": 28.8124772, "tags": {"name": "THY Yenibosna", "tourism": "artwork"}}, {"type": "node", "id": 5429323926, "lat": 41.0216909, "lon": 28.9619054, "tags": {"name": "EY\u00dcP SULTAN LOKUMCUSU", "name:en": "Turkish delight eyup sultan", "tourism": "artwork"}}, {"type": "node", "id": 5449194021, "lat": 41.0052375, "lon": 28.9785031, "tags": {"name": "\u0645\u0643\u0627\u0646 \u0627\u0646\u062a\u0638\u0627\u0631 \u0627\u0644\u0628\u0627\u0635 \u0665:\u0663\u0660", "tourism": "attraction"}}, {"type": "node", "id": 5450459406, "lat": 40.9952479, "lon": 29.0283998, "tags": {"name": "Galleria Mavist", "tourism": "gallery"}}, {"type": "node", "id": 5482189639, "lat": 41.0594939, "lon": 28.9495611, "tags": {"name": "Labirent-maze", "tourism": "attraction"}}, {"type": "node", "id": 5482303122, "lat": 41.0606675, "lon": 28.9478424, "tags": {"name": "Kristal Istanbul", "name:en": "Crystal Istanbul", "tourism": "attraction"}}, {"type": "node", "id": 5484108424, "lat": 41.0041463, "lon": 28.9745769, "tags": {"name": "Sphendon Duvari", "name:en": "Sphendon Wall", "tourism": "information"}}, {"type": "node", "id": 5484713133, "lat": 40.9644738, "lon": 28.825573, "tags": {"name": "Nice Ajax F\u00fczesi", "tourism": "attraction"}}, {"type": "node", "id": 5484713134, "lat": 40.9647099, "lon": 28.8251255, "tags": {"name": "Mavi Isik G", "tourism": "attraction"}}, {"type": "node", "id": 5484714621, "lat": 40.9632247, "lon": 28.8265234, "tags": {"name": "Dornier Do 28 D-1", "tourism": "attraction"}}, {"type": "node", "id": 5493801521, "lat": 41.0396552, "lon": 29.0027475, "tags": {"name": "Resim M\u00fczesi", "name:en": "Painting Museum", "name:tr": "Resim M\u00fczesi", "opening_hours": "Tu-Su 09:00-17:00", "operator": "Milli Saraylar", "tourism": "museum", "website": "http://www.millisaraylar.gov.tr/muzeler/resim_muzesi"}}, {"type": "node", "id": 5506396363, "lat": 41.0267866, "lon": 28.9727283, "tags": {"addr:city": "\u0130stanbul", "addr:district": "Beyo\u011flu", "addr:housenumber": "39", "addr:postcode": "34421", "addr:street": "Bereketzade Mahallesi B\u00fcy\u00fck Hendek Cadessi", "name": "500. Y\u0131l Vakf\u0131 T\u00fcrk Musevileri M\u00fczesi", "name:en": "The Jewish Museum of Turkey", "opening_hours": "10:00-16:00; Fr 10:00-13:00; Su 10:00-14:00", "phone": "+90 212 292 63 33", "tourism": "museum", "website": "http://www.muze500.com/", "wheelchair": "no"}}, {"type": "node", "id": 5599994986, "lat": 41.0018646, "lon": 28.9331468, "tags": {"addr:city": "\u0130stanbul", "addr:district": "Fatih", "alt_name": "Sulu Manast\u0131r\u0131;Surp Kevork Ermeni Kilisesi", "amenity": "place_of_worship", "building": "church", "denomination": "armenian_apostolic", "historic": "yes", "name": "Surp Kevork Kilisesi", "name:ar": "\u0643\u0646\u064a\u0633\u0629 \u0633\u0648\u0631\u0628 \u0643\u064a\u0641\u0648\u0631\u0643 \u0644\u0644\u0623\u0631\u0645\u0646", "name:de": "St.-Georgs-Kirche von Samatya", "name:el": "\u039c\u03bf\u03bd\u1f74 \u03c4\u1fc6\u03c2 \u0398\u03b5\u03bf\u03c4\u00f2\u03ba\u03bf\u03c5 \u03c4\u1fc6\u03c2 \u03a0\u03b5\u03c1\u03b9\u03b2\u03bb\u1f72\u03c0\u03c4\u03bf\u03c5", "name:en": "Church of St. George of Samatya", "name:hy": "\u054d\u0561\u0574\u0561\u0569\u056b\u0578\u0575 \u054d\u0578\u0582\u0580\u0562 \u0533\u0567\u0578\u0580\u0563 \u0535\u056f\u0565\u0572\u0565\u0581\u056b", "name:pl": "Ko\u015bci\u00f3\u0142 \u015bw. Jerzego", "religion": "christian", "source": "bing", "tourism": "attraction", "wikidata": "Q5117225", "wikipedia": "tr:Surp Kevork Kilisesi"}}, {"type": "node", "id": 5602054323, "lat": 41.0340997, "lon": 28.9779211, "tags": {"name": "\u00c7i\u00e7ek Pasaj\u0131", "name:ru": "\u0426\u0432\u0435\u0442\u043e\u0447\u043d\u044b\u0439 \u041f\u0430\u0441\u0441\u0430\u0436", "tourism": "attraction", "wheelchair": "no"}}, {"type": "node", "id": 5609470204, "lat": 41.0078369, "lon": 28.973497, "tags": {"addr:city": "Istanbul", "addr:district": "Fatih", "addr:housenumber": "No.3", "addr:neighbourhood": "Binbirdirek Mahallesi", "addr:postcode": "34122", "addr:street": "Klod Farer Caddesi", "description": "As Turkey & Tours Travel, we mostly provide private Turkey tours, Turkey tour packages, tailor-made Turkey tour options to our customers for them to discover Turkey.", "ele": "56", "email": "info@turkeytoursandtravel.com", "fax": "+90 212 458 0813", "name": "Turkey Tours and Travel", "name:tr": "T\u00fcrkiye Turlar\u0131 ve Seyahat", "opening_hours": "24/7", "operator": "CK Otelcilik Turizm Tic. Ltd. Sti.", "payment:bitcoin": "yes", "payment:cash": "yes", "payment:credit_cards": "yes", "phone": "+90 532 261 5265", "shop": "travel_agency", "source": "local knowledge", "start_date": "2015", "tourism": "information", "website": "https://turkeytoursandtravel.com/", "wheelchair": "yes"}}, {"type": "node", "id": 5640069827, "lat": 41.0299495, "lon": 28.9733012, "tags": {"addr:city": "Istanbul", "addr:district": "Beyo\u011flu", "addr:housenumber": "99", "addr:neighbourhood": "Asmal\u0131 Mescit Mahallesi", "addr:postcode": "34430", "addr:street": "Me\u015frutiyet Caddesi", "museum": "art", "name": "\u0130stanbul Modern Sanat M\u00fczesi", "name:en": "Istanbul Museum of Modern Art", "name:tr": "\u0130stanbul Modern Sanat M\u00fczesi", "name:zh-Hans": "\u4f0a\u65af\u5766\u5e03\u5c14\u73b0\u4ee3\u7f8e\u672f\u9986", "opening_hours": "Tu-Su 11:00-17:00", "phone": "+902123347300", "tourism": "museum", "website": "https://www.istanbulmodern.org/", "wheelchair": "designated"}}, {"type": "node", "id": 5645608922, "lat": 41.0526945, "lon": 29.2379176, "tags": {"addr:housenumber": "5-7", "addr:postcode": "34734", "addr:street": "145.Sokak", "email": "denizpireci@yahoo.com", "name": "Pireci Studio", "opening_hours": "Mo-Fr 10:00-18:00", "operator": "Deniz Pireci", "phone": "05358913639", "tourism": "museum", "website": "http://denizpireci.blogspot.com.tr"}}, {"type": "node", "id": 5645738321, "lat": 40.9789728, "lon": 28.7168886, "tags": {"name": "\u062d\u0627\u062a\u0645 \u0644\u0644\u0639\u0642\u0627\u0631\u0627\u062a", "tourism": "artwork"}}, {"type": "node", "id": 5667640801, "lat": 41.0028353, "lon": 28.916631, "tags": {"addr:city": "Istanbul", "addr:district": "Zeytinburnu", "artwork_type": "sculpture", "emergency": "no", "fee": "no", "healthcare:speciality": "community", "name": "Zeytinburnu Semiha \u015eakir huzurevi", "name:ar": "\u0645\u0631\u0643\u0632 \u062a\u0645\u0631\u064a\u0636 \u0633\u0645\u064a\u062d\u0629 \u0634\u0627\u0643\u0631", "office": "government", "operator": "\u0130stanbul valili\u011fi", "tourism": "artwork"}}, {"type": "node", "id": 5667641577, "lat": 41.0019893, "lon": 28.9185699, "tags": {"addr:city": "Istanbul", "addr:district": "Zeytinburnu", "name": "belgradkap\u0131 tesisleri", "name:ar": "\u062d\u062f\u064a\u0642\u0629 \u0628\u0644\u063a\u0631\u0627\u062f \u0643\u0627\u0628\u064a", "operator": "\u0627\u0644\u0628\u0644\u062f\u064a\u0629", "tourism": "attraction"}}, {"type": "node", "id": 5674712021, "lat": 41.0129663, "lon": 28.9749876, "tags": {"name": "Ipek Serigrafi", "tourism": "artwork"}}, {"type": "node", "id": 5721444021, "lat": 41.1770065, "lon": 28.9824644, "tags": {"name": "Atat\u00fcrk arboretumu", "tourism": "information", "website": "https://www.geziyerler.com/ataturk-arboretumu"}}, {"type": "node", "id": 5783643263, "lat": 41.0245125, "lon": 28.9793708, "tags": {"name": "Fransiz Gecidi", "tourism": "attraction"}}, {"type": "node", "id": 5866043085, "lat": 41.0446544, "lon": 29.0491701, "tags": {"historic": "monument", "name": "Inan\u00e7 Ev"}}, {"type": "node", "id": 5872511485, "lat": 41.0892649, "lon": 29.0566951, "tags": {"name": "Borusan Holding", "name:en": "Borusan contemporary", "name:fr": "Mus\u00e9e d'art moderne Borusan", "name:tr": "Perili K\u00f6\u015fk", "tourism": "museum"}}, {"type": "node", "id": 5928972413, "lat": 40.9000283, "lon": 29.2270179, "tags": {"artwork_type": "statue", "name": "Adnan Kahveci B\u00fcst\u00fc", "tourism": "artwork"}}, {"type": "node", "id": 5973063786, "lat": 41.0074554, "lon": 28.9724506, "tags": {"addr:housenumber": "4", "addr:postcode": "34122", "addr:street": "Piyer Loti Caddesi", "name": "\u015eerefiye Sarn\u0131c\u0131", "name:de": "Theodosius-Zisterne", "name:en": "Theodosius Cistern", "tourism": "museum", "wikidata": "Q3150393", "wikipedia": "de:Theodosius-Zisterne"}}, {"type": "node", "id": 6018929785, "lat": 41.1057922, "lon": 29.3010976, "tags": {"historic": "monument", "name": "happy dog"}}, {"type": "node", "id": 6032972815, "lat": 41.0249222, "lon": 29.0387247, "tags": {"artist_name": "Hisseden Adam", "artwork_type": "sculpture", "name": "Hisseden \u0130nsan", "name:en": "The Feeler", "name:tr": "Hisseden \u0130nsan", "start_date": "2011", "tourism": "artwork", "wikidata": "Q20470443"}}, {"type": "node", "id": 6052415485, "lat": 41.1094283, "lon": 28.9876038, "tags": {"name": "\u0645\u0648\u0644 \u0627\u0633\u0637\u0646\u0628\u0648\u0644", "tourism": "attraction"}}, {"type": "node", "id": 6072311187, "lat": 41.0074115, "lon": 28.9724859, "tags": {"addr:housenumber": "4", "addr:street": "Piyer Loti Caddesi", "name": "\u015eerefiye Cistern", "name:de": "Theodosius-Zisterne", "name:en": "Theodosia Cistern", "name:ru": "\u0426\u0438\u0441\u0442\u0435\u0440\u043d\u0430 \u0424\u0435\u043e\u0434\u043e\u0441\u0438\u044f", "name:tr": "\u015eerefiye Sarn\u0131c\u0131", "opening_hours": "Mo-Su 09:00-18:00", "tourism": "attraction", "website": "https://www.facebook.com/serefiyesarnici/", "wikidata": "Q3150393", "wikipedia": "de:Theodosius-Zisterne"}}, {"type": "node", "id": 6116486887, "lat": 41.0250792, "lon": 28.9788924, "tags": {"name": "Charlie Chaplin K\u00f6\u015fesi", "name:tr": "Charlie Chaplin K\u00f6\u015fesi", "tourism": "attraction"}}, {"type": "node", "id": 6132230786, "lat": 41.024615, "lon": 28.9792854, "tags": {"name": "Frans\u0131z Ge\u00e7idi", "name:tr": "Frans\u0131z Ge\u00e7idi", "tourism": "attraction"}}, {"type": "node", "id": 6168853485, "lat": 41.0112205, "lon": 28.9675064, "tags": {"name": "\u00dcnsal Lamba", "tourism": "artwork"}}, {"type": "node", "id": 6171043314, "lat": 41.1325992, "lon": 29.0401268, "tags": {"historic": "monument", "name": "\u015eehit U\u011fur Ta\u015f\u00e7\u0131 An\u0131t\u0131"}}, {"type": "node", "id": 6176125982, "lat": 41.0728753, "lon": 28.9041047, "tags": {"name": "Albino Akvaryum", "tourism": "aquarium"}}, {"type": "node", "id": 6180706492, "lat": 41.04121, "lon": 29.004119, "tags": {"name": "Saray Kolleksiyonlari Muzesi", "name:en": "Palace Collections Museum", "name:tr": "Saray Koleksiyonlar\u0131 M\u00fczesi", "opening_hours": "Tu-Su 09:00-17:00", "tourism": "museum", "website": "http://www.millisaraylar.gov.tr/muzeler/saray-koleksiyonlari-muzesi"}}, {"type": "node", "id": 6185844109, "lat": 41.0265217, "lon": 28.9746896, "tags": {"building": "yes", "name": "GalataArt", "tourism": "gallery", "wheelchair": "no"}}, {"type": "node", "id": 6185937305, "lat": 41.0238431, "lon": 28.9750813, "tags": {"addr:postcode": "34420", "addr:street": "Bankalar Caddesi", "name": "Sabanci Universitesi Kasa Galerisi", "name:en": "Sabanc\u0131 University Vault Gallery", "name:tr": "Sabanc\u0131 \u00dcniversitesi Kasa Galerisi", "phone": "02122924939", "shop": "art", "tourism": "museum", "website": "http://kasagaleri.sabanciuniv.edu", "wheelchair": "no"}}, {"type": "node", "id": 6189668275, "lat": 41.012343, "lon": 28.9440101, "tags": {"addr:city": "Istanbul", "addr:district": "Fatih", "addr:housenumber": "20", "addr:neighbourhood": "Molla G\u00fcrani Mahallesi", "addr:postcode": "34093", "addr:street": "Softa Sinan Sokak", "description": "At The Sultanahmet, we provide a smooth way for you to discover Turkey tours, activities, attractions and many things to do in Turkey. \n\nWe're a group of Turkey enthusiasts who love helping travelers planning to visit Turkey.", "ele": "30", "email": "hello@thesultanahmet.com", "information": "office", "name": "The Sultanahmet", "name:en": "The Sultanahmet", "operator": "Selcuk Vardar", "payment:cash": "yes", "payment:debit_cards": "yes", "payment:mastercard": "yes", "payment:visa": "yes", "phone": "+90 537 725 5464", "source": "local knowledge;gps", "tourism": "information", "website": "https://thesultanahmet.com", "wheelchair": "no"}}, {"type": "node", "id": 6224218736, "lat": 41.0445613, "lon": 28.985995, "tags": {"artwork_type": "statue", "name": "Papa XV. Benedictus", "tourism": "artwork"}}, {"type": "node", "id": 6260708785, "lat": 40.9562678, "lon": 28.8140195, "tags": {"name": "\u00c7iroz Plaj\u0131", "name:en": "\u00c7iroz Beach", "tourism": "artwork"}}, {"type": "node", "id": 6271889965, "lat": 41.01665, "lon": 29.0463784, "tags": {"artwork_type": "statue", "name": "Haydarpa\u015fa Atat\u00fcrk Heykeli", "name:en": "Haydarpasa Ataturk Statue", "tourism": "artwork"}}, {"type": "node", "id": 6348012656, "lat": 41.1622847, "lon": 29.046941, "tags": {"alt_name": ";Surp Bo\u011fos Ermeni Katolik Kilisesi", "amenity": "place_of_worship", "denomination": "catholic", "name": "Surp Bo\u011fos", "name:en": "Saint Paul", "name:tr": "Surp Bo\u011fos Ermeni Katolik Kilisesi", "note": "Armenian Catholic", "religion": "christian", "tourism": "attraction"}}, {"type": "node", "id": 6457625186, "lat": 41.0313056, "lon": 28.9462268, "tags": {"addr:street": "Merdivenli Yoku\u015f Evleri", "name": "Merdivenli Yoku\u015f Evleri", "name:ru": "\u041a\u0440\u0430\u0441\u0438\u0432\u0430\u044f \u0443\u043b\u0438\u0446\u0430 \u0441 \u0448\u0438\u043a\u0430\u0440\u043d\u044b\u043c \u0432\u0438\u0434\u043e\u043c", "tourism": "attraction"}}, {"type": "node", "id": 6502392074, "lat": 41.1958042, "lon": 28.3302282, "tags": {"historic": "monument", "name": "Atat\u00fcrk An\u0131t\u0131"}}, {"type": "node", "id": 6502395905, "lat": 41.0688232, "lon": 28.1268291, "tags": {"historic": "monument", "name": "Atat\u00fcrk B\u00fcst\u00fc"}}, {"type": "node", "id": 6531889028, "lat": 40.9871819, "lon": 29.0270039, "tags": {"name": "Bahariye Sanat", "tourism": "gallery"}}, {"type": "node", "id": 6546308423, "lat": 41.0813141, "lon": 28.2577834, "tags": {"artwork_type": "sculpture", "name": "Yo\u011furt\u00e7u", "tourism": "artwork"}}, {"type": "node", "id": 6559241038, "lat": 41.0561477, "lon": 28.9937295, "tags": {"name": "Eyl\u00fcl Sanat Galerisi", "tourism": "gallery"}}, {"type": "node", "id": 6676228447, "lat": 41.0830643, "lon": 29.0533156, "tags": {"artwork_type": "bust", "name": "Atat\u00fcrk B\u00fcst\u00fc", "tourism": "artwork"}}, {"type": "node", "id": 6750580277, "lat": 41.0403017, "lon": 28.8121685, "tags": {"name": "AMF", "tourism": "theme_park"}}, {"type": "node", "id": 6754151953, "lat": 41.0477819, "lon": 28.8104059, "tags": {"level": "2", "name": "Playland", "tourism": "theme_park"}}, {"type": "node", "id": 6762559885, "lat": 41.2452616, "lon": 29.0273091, "tags": {"name": "Bamboo Beach", "tourism": "attraction"}}, {"type": "node", "id": 6781557685, "lat": 41.0517652, "lon": 28.837693, "tags": {"name": "\u0645\u0646\u0632\u0644 \u0627\u064a\u0647\u0627\u0628 \u0623\u0628\u0648 \u0639\u0631\u0645\u0627\u0646\u0629", "tourism": "attraction"}}, {"type": "node", "id": 6790708612, "lat": 40.9834102, "lon": 29.0332241, "tags": {"artwork_type": "sculpture", "historic": "memorial", "inscription": "\u00dcnl\u00fc t\u00fcrk ressami Fikret Mualla 1903-1967", "material": "metal", "name": "Fikret Mualla", "tourism": "artwork"}}, {"type": "node", "id": 6811908186, "lat": 41.0585054, "lon": 28.6646441, "tags": {"name": "Pelit \u00c7\u0131kolata M\u00fczesi", "name:ar": "\u0645\u062a\u062d\u0641 \u0627\u0644\u0634\u0648\u0643\u0644\u0627\u0646\u0647", "name:en": "chocolate museum", "tourism": "attraction"}}, {"type": "node", "id": 6844074841, "lat": 41.0246743, "lon": 28.9574218, "tags": {"name": "Jaymaz Ud", "name:en": "Jaymaz Oud", "tourism": "artwork"}}, {"type": "node", "id": 6861167471, "lat": 41.0120877, "lon": 29.0550874, "tags": {"historic": "monument", "name": "Tarihi S\u00fctun"}}, {"type": "node", "id": 6879045345, "lat": 41.0351745, "lon": 29.0302142, "tags": {"name": "Harmony", "tourism": "gallery"}}, {"type": "node", "id": 6915418404, "lat": 41.0257391, "lon": 28.9804665, "tags": {"addr:city": "\u0130stanbul", "addr:district": "Karak\u00f6y", "addr:housenumber": "50", "addr:neighbourhood": "Kemanke\u015f Karamustafa Pa\u015fa", "addr:postcode": "34425", "addr:street": "Mumhane Caddesi", "name": "x-ist", "tourism": "gallery"}}, {"type": "node", "id": 6920021186, "lat": 41.0476488, "lon": 29.0274146, "tags": {"addr:street": "Yal\u0131 \u00c7\u0131kmaz\u0131", "name": "Esma Sultan Yal\u0131s\u0131", "name:en": "The Marmara Esma Sultan", "tourism": "attraction"}}, {"type": "node", "id": 6943481485, "lat": 41.0253995, "lon": 28.9408584, "tags": {"name": "Bilim ve \u0130nsan Vakf\u0131", "tourism": "attraction"}}, {"type": "node", "id": 6968819062, "lat": 41.0320737, "lon": 28.9760955, "tags": {"name": "SALT Beyo\u011flu", "tourism": "gallery"}}, {"type": "node", "id": 7004127456, "lat": 41.0830989, "lon": 29.0522193, "tags": {"description:en": "May Peace Prevail on Earth", "name": "Peace Pole", "tourism": "artwork"}}, {"type": "node", "id": 7107675458, "lat": 41.4132745, "lon": 28.1853018, "tags": {"historic": "monument", "name": "Atat\u00fcrk An\u0131t\u0131"}}, {"type": "node", "id": 7215645385, "lat": 41.0052523, "lon": 28.9768918, "tags": {"addr:city": "\u0130stanbul", "addr:district": "Fatih", "addr:housenumber": "7", "addr:neighbourhood": "Sultanahmet Mahallesi", "addr:postcode": "34122", "addr:street": "Atmeydan\u0131 Caddesi", "alt_name:cs": "Modr\u00e1 me\u0161ita", "amenity": "place_of_worship", "building": "mosque", "denomination": "sunni", "email": "info@sultanahmetcamii.org", "fax": "+90 212 458 4466", "name": "Sultanahmet Camii", "name:ar": "\u0645\u0633\u062c\u062f \u0627\u0644\u0633\u0644\u0637\u0627\u0646 \u0627\u062d\u0645\u062f ( \u0627\u0644\u062c\u0627\u0645\u0639 \u0627\u0644\u0623\u0632\u0631\u0642 )", "name:cs": "Me\u0161ita sult\u00e1na Ahmeda", "name:de": "Blaue Moschee", "name:el": "\u039c\u03c0\u03bb\u03b5 \u03a4\u03b6\u03b1\u03bc\u03af", "name:en": "The Blue Mosque", "name:es": "Mezquita azul", "name:fa": "\u0645\u0633\u062c\u062f \u0633\u0644\u0637\u0627\u0646 \u0627\u062d\u0645\u062f", "name:fr": "La mosqu\u00e9e bleue", "name:hi": "\u0938\u0941\u0932\u094d\u0924\u093e\u0928 \u0905\u0939\u092e\u0926 \u092e\u0938\u094d\u091c\u093f\u0926\u00a0\u00a0(\u0928\u0940\u0932\u0940 \u092e\u0938\u094d\u091c\u093f\u0926)", "name:it": "Moschea Blu", "name:ko": "\ube14\ub8e8 \ubaa8\uc2a4\ud06c", "name:ml": "\u0d38\u0d41\u0d7d\u0d24\u0d4d\u0d24\u0d3e\u0d7b \u0d05\u0d39\u0d4d\u0d2e\u0d26\u0d4d \u0d2e\u0d38\u0d4d\u0d1c\u0d3f\u0d26\u0d4d (\u0d28\u0d40\u0d32 \u0d2e\u0d38\u0d4d\u0d1c\u0d3f\u0d26\u0d4d)", "name:ru": "\u0413\u043e\u043b\u0443\u0431\u0430\u044f \u043c\u0435\u0447\u0435\u0442\u044c", "name:tr": "Sultan Ahmet Camii", "name:zh": "1-7\u84dd\u8272\u6e05\u771f\u5bfa", "opening_hours": "Mo-Su 09:00-18:00", "phone": "+90 212 518 1319", "religion": "muslim", "tourism": "attraction", "website": "https://www.geziyerler.com/sultan-ahmet-camii", "wheelchair": "no", "wikidata": "Q80541", "wikipedia": "en:Sultan Ahmed Mosque"}}, {"type": "node", "id": 7227145644, "lat": 41.0175633, "lon": 28.593036, "tags": {"name": "\u0130brahim \u00c7all\u0131 Sanat Galerisi", "tourism": "gallery"}}, {"type": "node", "id": 7389731686, "lat": 40.8398157, "lon": 29.3134604, "tags": {"historic": "monument", "name": "\u015fi\u015fecam pa\u015fabah\u00e7e tuzla"}}, {"type": "node", "id": 7398424161, "lat": 40.9822605, "lon": 29.1362158, "tags": {"historic": "monument", "name": "Erenk\u00f6y G\u00fcmr\u00fc\u011f\u00fc"}}, {"type": "node", "id": 7405842849, "lat": 41.0240778, "lon": 28.9689764, "tags": {"artwork_type": "statue", "name": "Mimar Sinan", "tourism": "artwork"}}, {"type": "node", "id": 7496964585, "lat": 40.9855785, "lon": 29.0347216, "tags": {"addr:housenumber": "32", "addr:street": "Re\u015fit Pa\u015fa Soka\u011f\u0131", "name": "Sar\u0131 Lacivert Derne\u011fi", "opening_hours": "Mo-Su 10:00-21:00", "phone": "02164494500", "tourism": "attraction", "website": "http://sarilacivert.org.tr"}}, {"type": "node", "id": 7500995678, "lat": 41.0898493, "lon": 29.0102163, "tags": {"artwork_type": "statue", "description": "T\u00fcrk; \u00f6\u011f\u00fcn, \u00e7al\u0131\u015f, g\u00fcven.", "name": "Atat\u00fcrk", "tourism": "artwork"}}, {"type": "node", "id": 7580601342, "lat": 41.0673647, "lon": 28.691469, "tags": {"museum": "art", "name": "Discovery Museum", "tourism": "museum"}}, {"type": "node", "id": 7651602485, "lat": 41.0191302, "lon": 28.5832365, "tags": {"historic": "monument", "name": "B\u00fcy\u00fck\u00e7ekmece Atat\u00fcrk An\u0131t\u0131"}}, {"type": "node", "id": 7651620473, "lat": 41.0207103, "lon": 28.5859734, "tags": {"historic": "monument", "name": "\u015eampiyonlar An\u0131t\u0131"}}, {"type": "node", "id": 7654975432, "lat": 41.0015887, "lon": 28.6416218, "tags": {"name": "Bat\u0131 \u0130stanbul Sergi Salonu", "tourism": "gallery"}}, {"type": "node", "id": 8010781085, "lat": 40.8384284, "lon": 29.1207115, "tags": {"name": "Plaj", "name:en": "Beach", "tourism": "attraction"}}, {"type": "node", "id": 8050489585, "lat": 41.0275991, "lon": 28.9840777, "tags": {"name": "MSGS\u00dc Istanbul Resim ve Heykel M\u00fczesi", "tourism": "museum"}}, {"type": "node", "id": 8071687535, "lat": 41.2611831, "lon": 28.7409883, "tags": {"charge": "5 EUR", "fee": "yes", "level": "3", "name": "Istanbul Havalimani M\u00fczesi", "name:en": "Istanbul Airport Museum", "opening_hours": "09:00-21:00", "tourism": "museum"}}, {"type": "node", "id": 8204835317, "lat": 41.4505511, "lon": 28.38378, "tags": {"alt_name": "Karacak\u00f6y Evicik Plaj\u0131", "name": "Evcik Plaj\u0131", "name:en": "Evcik Beach", "tourism": "attraction"}}, {"type": "node", "id": 8204836917, "lat": 41.4501814, "lon": 28.3817695, "tags": {"name": "Anastasias Walls", "tourism": "attraction"}}, {"type": "node", "id": 8204998817, "lat": 41.0372674, "lon": 28.9554478, "tags": {"name": "Aynal\u0131kavak Kasr\u0131 (Milli Saraylar)", "tourism": "attraction"}}, {"type": "node", "id": 8205141817, "lat": 41.0301949, "lon": 28.9499664, "tags": {"name": "Dimitrie Cantemir Museum", "tourism": "museum"}}, {"type": "node", "id": 8403439115, "lat": 41.2223906, "lon": 28.4550485, "tags": {"artwork_subject": "Atat\u00fcrk", "artwork_type": "bust", "name": "Atat\u00fcrk B\u00fcst\u00fc", "tourism": "artwork"}}, {"type": "node", "id": 8419100817, "lat": 41.0295636, "lon": 28.9476599, "tags": {"historic": "monument", "name": "Casas", "name:tr": "Balat : casas de colores"}}, {"type": "node", "id": 8442630599, "lat": 40.9874199, "lon": 28.7076407, "tags": {"addr:city": "istanbul", "addr:district": "avc\u0131lar", "addr:housenumber": "35", "addr:neighbourhood": "Cihangir", "addr:postcode": "34310", "addr:street": "Hamza Yerlikaya Soka\u011f\u0131", "description": "kurumsal web tasar\u0131m ve e-ticaret web tasar\u0131m hizmetleri sunan zamran software ailesi olarak sizlere daha iyi hizmet vermeyi ama\u00e7l\u0131yoruz", "name": "Zamran Software Web Tasar\u0131m Hizmetleri", "operator": "Zamran software web tasar\u0131m hizmetleri", "phone": "05322829486", "source": "https://zamran.com", "start_date": "2018.01.10", "tourism": "attraction"}}, {"type": "node", "id": 8494761225, "lat": 41.0361138, "lon": 29.0303873, "tags": {"name": "Kuzcunkuk", "name:es": "Centro de Kuzcunkuk", "tourism": "attraction"}}, {"type": "node", "id": 8562492885, "lat": 41.0223907, "lon": 28.5748428, "tags": {"name": "Mimar Sinan Heykeli", "tourism": "artwork"}}, {"type": "node", "id": 8616873217, "lat": 40.9836808, "lon": 28.8724558, "tags": {"name": "\u0627\u0644\u0645\u0633\u062d\u0647", "tourism": "attraction"}}, {"type": "node", "id": 8680809215, "lat": 41.0168678, "lon": 29.0182018, "tags": {"historic": "monument", "inscription": "no", "name": "\u0130nadiye \u00c7e\u015fmesi", "note": "kit\u00e2besiz"}}, {"type": "node", "id": 8699169212, "lat": 41.0147153, "lon": 28.9738991, "tags": {"fee": "no", "name": "PTT M\u00fczesi", "name:en": "Post Museum", "opening_hours": "Mo-Fr 09:00-12:00,12:30-16:00", "tourism": "museum"}}, {"type": "node", "id": 8699238719, "lat": 40.9974551, "lon": 28.9416986, "tags": {"name": "Ya\u015far Kemal", "tourism": "artwork"}}, {"type": "node", "id": 8942071218, "lat": 40.9802723, "lon": 28.774049, "tags": {"historic": "monument", "name": "Kibrithane"}}, {"type": "node", "id": 8992472068, "lat": 40.8650419, "lon": 28.9949093, "tags": {"artwork_type": "sculpture", "name": "Adaletin K\u00f6rl\u00fc\u011f\u00fc", "tourism": "artwork"}}, {"type": "node", "id": 9013465510, "lat": 41.0416268, "lon": 29.0070446, "tags": {"artwork_type": "sculpture", "name": "Osmanl\u0131 Toplar\u0131", "tourism": "artwork"}}, {"type": "node", "id": 9013465511, "lat": 41.0415549, "lon": 29.0070443, "tags": {"artwork_type": "sculpture", "name": "Osmanl\u0131 Toplar\u0131", "tourism": "artwork"}}, {"type": "node", "id": 9013465512, "lat": 41.0416163, "lon": 29.0069235, "tags": {"artwork_type": "sculpture", "name": "Osmanl\u0131 Toplar\u0131", "tourism": "artwork"}}, {"type": "node", "id": 9013465513, "lat": 41.0415347, "lon": 29.0069558, "tags": {"artwork_type": "sculpture", "name": "Osmanl\u0131 Toplar\u0131", "tourism": "artwork"}}, {"type": "node", "id": 9013465514, "lat": 41.0415093, "lon": 29.0068547, "tags": {"artwork_type": "sculpture", "name": "Osmanl\u0131 Toplar\u0131", "tourism": "artwork"}}, {"type": "node", "id": 9050444201, "lat": 41.0384784, "lon": 28.9408557, "tags": {"name": "\u0422\u044e\u0440\u044c\u043c\u0430 \u0410\u043d\u0435\u043c\u0430\u0441", "tourism": "attraction"}}, {"type": "node", "id": 9054452637, "lat": 41.0895251, "lon": 28.8649129, "tags": {"artwork_type": "sculpture", "name": "Sultangazi Belediyesi Heykeli", "tourism": "artwork"}}, {"type": "node", "id": 9056446817, "lat": 41.0329087, "lon": 28.7337663, "tags": {"name": "Bathonea Arkeolojik Kaz\u0131 Alan\u0131", "name:en": "Bathonea Archeological Park", "name:ru": "\u0411\u0430\u0442\u043e\u043d\u0435\u044f - \u0430\u0440\u0445\u0435\u043e\u043b\u043e\u0433\u0438\u0447\u0435\u0441\u043a\u0438\u0439 \u043f\u0430\u0440\u043a", "tourism": "attraction"}}, {"type": "node", "id": 9057384617, "lat": 40.9930736, "lon": 28.8861061, "tags": {"name": "Fildam\u0131", "name:en": "Cistern", "name:ru": "\u0431. \u0426\u0438\u0441\u0442\u0435\u0440\u043d\u0430 (\u043d\u044b\u043d\u0435 \u0441\u0442\u0430\u0434\u0438\u043e\u043d)", "tourism": "attraction"}}, {"type": "node", "id": 9057384717, "lat": 40.9811287, "lon": 28.8870089, "tags": {"name": "\u0130mparatorlar\u0131n ordu taraf\u0131ndan ilan edildi\u011fi yer", "name:en": "The place where the Byzantine emperors were procloamed by the army", "name:ru": "\u041c\u0435\u0441\u0442\u043e, \u0433\u0434\u0435 \u0430\u0440\u043c\u0438\u044f \u043f\u0440\u043e\u0432\u043e\u0437\u0433\u043b\u0430\u0448\u0430\u043b\u0430 \u0438\u043c\u043f\u0435\u0440\u0430\u0442\u043e\u0440\u0430", "tourism": "attraction"}}, {"type": "node", "id": 9062385892, "lat": 41.1880689, "lon": 28.9678225, "tags": {"information": "office", "name": "Ziyaret\u00e7i E\u011fitim ve Tan\u0131t\u0131m Merkezi", "tourism": "information"}}, {"type": "node", "id": 9063181317, "lat": 40.9031308, "lon": 29.1511392, "tags": {"name": "Dragos Arkeolojik Kaz\u0131 Alan\u0131", "name:ru": "\u0412\u043e\u0437\u043c\u043e\u0436\u043d\u043e\u0435 \u043c\u0435\u0441\u0442\u043e \u0432\u0438\u0437\u0430\u043d\u0442\u0438\u0439\u0441\u043a\u043e\u0433\u043e \u0434\u0432\u043e\u0440\u0446\u0430 \u0412\u0440\u0438\u0430\u0441", "tourism": "attraction"}}, {"type": "node", "id": 9063498417, "lat": 40.7909375, "lon": 29.2634589, "tags": {"name": "Hayirsizada", "name:ru": "\u041e\u0441\u0442\u0440\u043e\u0432 \u0441\u0432. \u041f\u0435\u043b\u0430\u0433\u0438\u0438", "tourism": "attraction"}}, {"type": "node", "id": 9122107017, "lat": 41.0097647, "lon": 28.9538617, "tags": {"name": "\u0633\u0648\u0642  \u0643\u0628\u064a\u0631", "tourism": "artwork"}}, {"type": "node", "id": 9122533608, "lat": 41.017156, "lon": 28.5885779, "tags": {"information": "office", "name": "B\u00fcy\u00fck\u00e7ekmece Belediyesi \u0130rtibat B\u00fcrosu", "tourism": "information"}}, {"type": "node", "id": 9126827717, "lat": 41.0207813, "lon": 28.9465625, "tags": {"name": "\u0628\u062f\u0644\u0627\u062a \u0639\u0631\u0633", "tourism": "artwork"}}, {"type": "node", "id": 9136083617, "lat": 41.0148475, "lon": 28.9718041, "tags": {"name": "\u0628\u0646\u0637\u0631\u0648\u0646", "tourism": "artwork"}}, {"type": "node", "id": 9166929212, "lat": 41.115819, "lon": 28.9981836, "tags": {"historic": "monument", "name": "\u015eerife Bac\u0131 An\u0131t\u0131"}}, {"type": "node", "id": 9186813717, "lat": 40.9656266, "lon": 28.7976268, "tags": {"name": "\u0627\u0643\u0648\u0627\u0631\u064a\u0648\u0645 \u0627\u0633\u0637\u0646\u0628\u0648\u0644", "tourism": "attraction"}}, {"type": "node", "id": 9189559817, "lat": 41.0167316, "lon": 28.9841248, "tags": {"name": "\u0628\u0627\u0631\u0643", "tourism": "attraction"}}, {"type": "node", "id": 9192757618, "lat": 41.1756848, "lon": 28.9828929, "tags": {"name": "\u063a\u0627\u0628\u0627\u062a", "tourism": "attraction"}}, {"type": "node", "id": 9202737517, "lat": 41.1852056, "lon": 28.7537389, "tags": {"name": "\u0627\u0628\u0648 \u0627\u0644\u0633\u0641\u0631", "tourism": "attraction"}}, {"type": "node", "id": 9206305917, "lat": 41.0113939, "lon": 28.9646825, "tags": {"historic": "monument", "name": "Beyazit Kulesi", "name:es": "Torre de Beyazit"}}, {"type": "node", "id": 9209320017, "lat": 41.0188456, "lon": 28.968234, "tags": {"name": "\u0628\u064a\u062f\u0631", "tourism": "attraction"}}, {"type": "node", "id": 9211740175, "lat": 41.1064505, "lon": 29.0348798, "tags": {"artwork_type": "sculpture", "name": "Atat\u00fcrk Heykeli", "tourism": "artwork"}}, {"type": "node", "id": 9214457118, "lat": 41.0346417, "lon": 28.9801102, "tags": {"name": "Istikl\u00e2l Caddesi", "tourism": "attraction"}}, {"type": "node", "id": 9217070484, "lat": 41.0108493, "lon": 28.9631157, "tags": {"description": "T\u00fcrkiye\u2019nin ilk Eczac\u0131l\u0131k Tarihi M\u00fczesi olan m\u00fczemiz 1960 y\u0131l\u0131nda Prof. Dr. Turhan Baytop taraf\u0131ndan kurulmu\u015ftur. M\u00fczenin \u00e7ekirde\u011fini T. Baytop\u2019un ki\u015fisel koleksiyonu olu\u015fturmu\u015f, daha sonra eczac\u0131lar\u0131n ve hekimlerin ba\u011f\u0131\u015flad\u0131\u011f\u0131 e\u015fyalar ile m\u00fcze zenginle\u015fm", "email": "eczaciliktarihi@istanbul.edu.tr", "fee": "no", "image": "https://sivilalanarastirmalari.org.tr/wp-content/uploads/2020/06/eczac%C4%B1l%C4%B1k.jpg", "museum": "history", "name": "T\u00fcrk Eczac\u0131l\u0131k Tarihi \u0130htisas M\u00fczesi", "operator": "\u0130stanbul \u00dcniversitesi", "phone": "+90 212 440 00 00", "tourism": "museum", "website": "https://muzeyum.istanbul.edu.tr/tr/content/muzeler/istanbul-universitesi-turk-eczacilik-tarihi-ihtisas-muzesi"}}, {"type": "node", "id": 9217099231, "lat": 41.0098561, "lon": 28.9601156, "tags": {"addr:city": "Istanbul", "addr:district": "Fatih", "addr:street": "Ordu Caddesi", "email": "arkeolojimuzesi@istanbul.edu.tr", "fee": "no", "image": "https://bilimveaydinlanma.org/content/images/2019/09/haber0.jpg", "museum": "history", "name": "\u0130stanbul \u00dcniversitesi R\u0131dvan \u00c7elikel Arkeoloji M\u00fczesi", "operator": "\u0130stanbul \u00dcniversitesi", "phone": "+90 (212) 440 00 00", "tourism": "museum", "website": "https://arkeolojimuzesi.istanbul.edu.tr/", "wikidata": "Q68219486", "wikipedia": "tr:\u0130stanbul \u00dcniversitesi R\u0131dvan \u00c7elikel Arkeoloji M\u00fczesi"}}, {"type": "node", "id": 9217147446, "lat": 40.8638071, "lon": 28.9922555, "tags": {"artwork_type": "sculpture", "name": "Yerine Ula\u015fmayan Mektuplar An\u0131t\u0131", "tourism": "artwork"}}, {"type": "node", "id": 9217240859, "lat": 40.8645518, "lon": 28.9943476, "tags": {"artwork_type": "sculpture", "name": "Urgana Yenik D\u00fc\u015fmek", "tourism": "artwork"}}, {"type": "node", "id": 9252958276, "lat": 40.8650138, "lon": 28.9930175, "tags": {"museum": "history", "name": "Bizans Zindanlar\u0131", "name:en": "Byzantine Dungeons", "tourism": "museum"}}, {"type": "node", "id": 9308901217, "lat": 41.1092607, "lon": 28.8030258, "tags": {"name": "\u0633\u0643\u0646 \u0628\u0643\u0631", "tourism": "attraction"}}, {"type": "node", "id": 9385742259, "lat": 41.0038109, "lon": 28.6372792, "tags": {"artwork_type": "sculpture", "material": "steel", "name": "Atat\u00fcrk Sil\u00fceti", "tourism": "artwork"}}, {"type": "node", "id": 9392996658, "lat": 41.0256456, "lon": 28.9742198, "tags": {"name": "Galata Tower", "tourism": "attraction"}}, {"type": "node", "id": 9393008312, "lat": 41.0041016, "lon": 28.9751527, "tags": {"description": "for free!", "fee": "no", "name": "Ancient cistern in the cellar of shop Nakkas", "tourism": "attraction"}}, {"type": "node", "id": 9393024293, "lat": 41.0160604, "lon": 28.9554094, "tags": {"name": "Valens Aqueduct", "tourism": "attraction"}}, {"type": "node", "id": 9417454817, "lat": 41.1360039, "lon": 28.8933546, "tags": {"historic": "monument", "name": "Aqueduc"}}, {"type": "node", "id": 9437906781, "lat": 41.2738333, "lon": 28.5131693, "tags": {"historic": "monument", "name": "Alaiye An\u0131t\u0131"}}, {"type": "node", "id": 9446573551, "lat": 41.0478768, "lon": 28.9327038, "tags": {"name": "Ey\u00fcpsultan Belediyesi Zab\u0131ta Turizm Dan\u0131\u015fma", "tourism": "information"}}, {"type": "node", "id": 9455334211, "lat": 40.9833157, "lon": 28.7223654, "tags": {"name": "\u0130stanbul B\u00fcy\u00fck\u015fehir Belediyesi \u00c7\u00f6z\u00fcm Noktas\u0131", "tourism": "information"}}, {"type": "node", "id": 9456896650, "lat": 41.0163142, "lon": 29.0654998, "tags": {"name": "\u00c7aml\u0131ca Kulesi", "tourism": "attraction"}}, {"type": "node", "id": 9482768518, "lat": 40.9853863, "lon": 29.0541508, "tags": {"historic": "monument", "name": "Jet U\u00e7a\u011f\u0131 An\u0131t\u0131"}}]}